{
"type": "FeatureCollection",
"generator": "overpass-ide",
"copyright": "The data included in this document is from www.openstreetmap.org. The data is made available under ODbL.",
"timestamp": "2019-12-26T00:05:02Z",
"name": "road",
"features": [
{ "type": "Feature", "id": "way\/36330118", "properties": { "@id": "way\/36330118", "dual_carriage": "yes", "highway": "secondary", "lanes": "2", "name": "ถนนเชียงรากน้อย", "oneway": "yes", "ref": "3214" }, "geometry": { "type": "LineString", "coordinates": [ [ 100.6072561, 14.0653871 ], [ 100.6080187, 14.0653727 ], [ 100.6081904, 14.0653695 ], [ 100.6099692, 14.0653365 ], [ 100.6100892, 14.0653344 ] ] } },
{ "type": "Feature", "id": "way\/52444147", "properties": { "@id": "way\/52444147", "highway": "secondary_link", "name": "ถนนเชียงรากน้อย", "oneway": "yes", "ref": "3214", "source": "GPS" }, "geometry": null },
{ "type": "Feature", "id": "way\/62163426", "properties": { "@id": "way\/62163426", "highway": "service" }, "geometry": null },
{ "type": "Feature", "id": "way\/62163427", "properties": { "@id": "way\/62163427", "highway": "unclassified", "lanes": "2", "name": "ถนนโดมร่วมใจ", "name:en": "Thanon Dome Ruamjai" }, "geometry": null },
{ "type": "Feature", "id": "way\/62163428", "properties": { "@id": "way\/62163428", "highway": "residential", "lanes": "2", "source": "GPS" }, "geometry": null },
{ "type": "Feature", "id": "way\/62163429", "properties": { "@id": "way\/62163429", "highway": "service", "source": "GPS" }, "geometry": null },
{ "type": "Feature", "id": "way\/62163430", "properties": { "@id": "way\/62163430", "highway": "service", "oneway": "yes" }, "geometry": null },
{ "type": "Feature", "id": "way\/62163431", "properties": { "@id": "way\/62163431", "highway": "unclassified", "name": "ถนนตลาดวิชา", "name:en": "Thanon Talad Vicha", "direction": "clockwise", "junction": "roundabout" }, "geometry": { "type": "LineString", "coordinates": [ [ 100.6016378, 14.0749481 ], [ 100.6016685, 14.0749436 ], [ 100.6016962, 14.0749298 ], [ 100.6017179, 14.0749082 ], [ 100.6017315, 14.0748811 ], [ 100.6017355, 14.0748513 ], [ 100.6017211, 14.0748048 ], [ 100.6016848, 14.0747715 ], [ 100.6016361, 14.0747602 ] ] } },
{ "type": "Feature", "id": "way\/62163432", "properties": { "@id": "way\/62163432", "highway": "residential", "lanes": "2", "name": "ถนนบัณทิตอาสา", "name:en": "Thanon Bandid Aasa" }, "geometry": null },
{ "type": "Feature", "id": "way\/62163433", "properties": { "@id": "way\/62163433", "highway": "unclassified", "lanes": "2", "name": "ถนนยูงทอง", "oneway": "yes", "name:en": "Thanon Yoongthong" }, "geometry": { "type": "LineString", "coordinates": [ [ 100.5950949, 14.0773709 ], [ 100.5951319, 14.0772597 ], [ 100.5952659, 14.0770211 ], [ 100.5953897, 14.0768659 ], [ 100.5955013, 14.0767354 ], [ 100.5955657, 14.0766888 ], [ 100.5957206, 14.076595 ], [ 100.5957832, 14.0765518 ], [ 100.5958763, 14.0765054 ], [ 100.5959998, 14.0764476 ], [ 100.596168, 14.0764169 ], [ 100.5965265, 14.0763801 ], [ 100.5966495, 14.0763739 ], [ 100.5976256, 14.0763 ], [ 100.5977424, 14.0762939 ], [ 100.5978857, 14.0762956 ] ] } },
{ "type": "Feature", "id": "way\/62163435", "properties": { "@id": "way\/62163435", "highway": "unclassified", "lanes": "2", "name": "ถนนยูงทอง", "oneway": "yes", "name:en": "Thanon Yoongthong" }, "geometry": { "type": "LineString", "coordinates": [ [ 100.6016175, 14.0759655 ], [ 100.6004889, 14.076034 ], [ 100.5981275, 14.0761839 ], [ 100.5980673, 14.0761884 ] ] } },
{ "type": "Feature", "id": "way\/62163438", "properties": { "@id": "way\/62163438", "highway": "unclassified", "lanes": "2", "name": "ถนนประชาสันติ", "oneway": "yes", "name:en": "Thanon Pracha Santi" }, "geometry": { "type": "LineString", "coordinates": [ [ 100.6050455, 14.065565 ], [ 100.6050814, 14.0657271 ], [ 100.6050905, 14.0660626 ], [ 100.6050922, 14.0661458 ] ] } },
{ "type": "Feature", "id": "way\/62164418", "properties": { "@id": "way\/62164418", "highway": "unclassified", "name": "ถนนยูงทอง", "name:en": "Thanon Yoongthong", "junction": "roundabout" }, "geometry": { "type": "LineString", "coordinates": [ [ 100.5978857, 14.0762956 ], [ 100.5979198, 14.0763322 ], [ 100.5979676, 14.0763492 ], [ 100.5980368, 14.0763335 ], [ 100.5980804, 14.0762791 ] ] } },
{ "type": "Feature", "id": "way\/62164419", "properties": { "@id": "way\/62164419", "highway": "service" }, "geometry": null },
{ "type": "Feature", "id": "way\/62164420", "properties": { "@id": "way\/62164420", "highway": "unclassified", "lanes": "2", "name": "ถนนยูงทอง", "oneway": "yes", "name:en": "Thanon Yoongthong" }, "geometry": { "type": "LineString", "coordinates": [ [ 100.5980804, 14.0762791 ], [ 100.5981425, 14.0762716 ], [ 100.600493, 14.0761355 ], [ 100.6014997, 14.0760707 ], [ 100.6015662, 14.0760671 ], [ 100.6016656, 14.0760634 ] ] } },
{ "type": "Feature", "id": "way\/62182767", "properties": { "@id": "way\/62182767", "highway": "residential", "lanes": "4", "name": "ถนนตลาดวิชา", "name:en": "Thanon Talad Vicha" }, "geometry": { "type": "LineString", "coordinates": [ [ 100.6016175, 14.0759655 ], [ 100.6016225, 14.0758423 ], [ 100.6016274, 14.0754304 ] ] } },
{ "type": "Feature", "id": "way\/62274142", "properties": { "@id": "way\/62274142", "highway": "secondary_link", "oneway": "yes", "source": "GPS" }, "geometry": null },
{ "type": "Feature", "id": "way\/62274145", "properties": { "@id": "way\/62274145", "highway": "residential", "source": "GPS", "bridge": "yes", "layer": "2" }, "geometry": null },
{ "type": "Feature", "id": "way\/62274147", "properties": { "@id": "way\/62274147", "highway": "residential", "lanes": "2", "name": "ถนนยูงทอง", "source": "GPS" }, "geometry": null },
{ "type": "Feature", "id": "way\/62274156", "properties": { "@id": "way\/62274156", "highway": "residential", "name": "ถนนพิราบขาว", "name:en": "Thanon Pirarbkhao" }, "geometry": { "type": "LineString", "coordinates": [ [ 100.6016545, 14.0704688 ], [ 100.5990974, 14.0704522 ], [ 100.5990811, 14.070452 ], [ 100.598733, 14.0704623 ], [ 100.5986805, 14.0704829 ], [ 100.5986436, 14.0705404 ], [ 100.5986355, 14.0706004 ], [ 100.5986452, 14.0711743 ], [ 100.5986269, 14.0712075 ], [ 100.5985866, 14.0712387 ], [ 100.5985272, 14.0712577 ], [ 100.5979295, 14.0712257 ], [ 100.5973797, 14.0711935 ] ] } },
{ "type": "Feature", "id": "way\/62274169", "properties": { "@id": "way\/62274169", "highway": "unclassified", "lanes": "2", "name": "ถนนยูงทอง", "oneway": "yes", "name:en": "Thanon Yoongthong" }, "geometry": null },
{ "type": "Feature", "id": "way\/62274174", "properties": { "@id": "way\/62274174", "highway": "unclassified", "lanes": "1", "name": "ถนนยูงทอง", "oneway": "yes", "name:en": "Thanon Yoongthong" }, "geometry": null },
{ "type": "Feature", "id": "way\/62274212", "properties": { "@id": "way\/62274212", "highway": "unclassified", "lanes": "2", "name": "ถนนธรรมจักร", "oneway": "yes", "name:en": "Thanon Thammajak" }, "geometry": null },
{ "type": "Feature", "id": "way\/62274213", "properties": { "@id": "way\/62274213", "highway": "unclassified", "lanes": "2", "name": "ถนนปรีดี พนมยงค์", "name:en": "Thanon Pridi Banomyong" }, "geometry": { "type": "LineString", "coordinates": [ [ 100.6016423, 14.0720874 ], [ 100.6016961, 14.0720844 ], [ 100.6018542, 14.0720856 ], [ 100.6020545, 14.0720852 ], [ 100.6024004, 14.0720864 ], [ 100.6029125, 14.0720908 ], [ 100.6032839, 14.0720937 ], [ 100.6033598, 14.0720935 ], [ 100.6040157, 14.0720959 ], [ 100.6044311, 14.072098 ], [ 100.6045985, 14.0720999 ], [ 100.6051034, 14.0721012 ], [ 100.6059186, 14.072107 ], [ 100.606315, 14.0721091 ], [ 100.6074367, 14.0721162 ], [ 100.6079871, 14.0721195 ], [ 100.608072, 14.0721197 ], [ 100.6085596, 14.0721211 ], [ 100.608681, 14.0721214 ], [ 100.6091671, 14.0721227 ], [ 100.6100967, 14.0721294 ], [ 100.6109973, 14.0721432 ], [ 100.6113901, 14.0721495 ], [ 100.6115306, 14.0721497 ], [ 100.61202, 14.0721582 ], [ 100.6122038, 14.0721607 ], [ 100.6131704, 14.0721553 ], [ 100.6134172, 14.0721722 ], [ 100.61422, 14.072165 ], [ 100.6150414, 14.0721679 ], [ 100.61617, 14.0721746 ] ] } },
{ "type": "Feature", "id": "way\/62343924", "properties": { "@id": "way\/62343924", "highway": "service", "source": "GPS" }, "geometry": null },
{ "type": "Feature", "id": "way\/62353167", "properties": { "@id": "way\/62353167", "highway": "unclassified", "lanes": "2", "name": "ถนนยูงทอง", "name:en": "Thanon Yoongthong", "junction": "roundabout" }, "geometry": { "type": "LineString", "coordinates": [ [ 100.5950949, 14.0773709 ], [ 100.5950006, 14.0773455 ], [ 100.5949175, 14.077386 ], [ 100.5948345, 14.0774556 ], [ 100.5947695, 14.07757 ], [ 100.5947349, 14.0776772 ], [ 100.5947334, 14.0777869 ], [ 100.59476, 14.077932 ], [ 100.5948222, 14.0779569 ], [ 100.5948669, 14.0779708 ], [ 100.5949403, 14.0779309 ], [ 100.5950255, 14.0778774 ], [ 100.5951203, 14.0777505 ], [ 100.5951606, 14.0776394 ], [ 100.595179, 14.0775181 ], [ 100.5951547, 14.0774292 ], [ 100.5950949, 14.0773709 ] ] } },
{ "type": "Feature", "id": "way\/64773944", "properties": { "@id": "way\/64773944", "highway": "unclassified", "lanes": "1", "name": "ถนนยูงทอง", "oneway": "yes", "name:en": "Thanon Yoongthong" }, "geometry": null },
{ "type": "Feature", "id": "way\/65104111", "properties": { "@id": "way\/65104111", "highway": "unclassified", "lanes": "2", "name": "ถนนประภาศน์ อวยชัย", "name:en": "Thanon Prapart Uay-Chai" }, "geometry": { "type": "LineString", "coordinates": [ [ 100.6160451, 14.06677 ], [ 100.6136403, 14.066805 ], [ 100.6129736, 14.0668105 ], [ 100.6101262, 14.0668341 ], [ 100.6100321, 14.0668351 ] ] } },
{ "type": "Feature", "id": "way\/70247722", "properties": { "@id": "way\/70247722", "highway": "service", "oneway": "yes" }, "geometry": null },
{ "type": "Feature", "id": "way\/70247723", "properties": { "@id": "way\/70247723", "highway": "service", "oneway": "yes", "junction": "roundabout" }, "geometry": null },
{ "type": "Feature", "id": "way\/70247725", "properties": { "@id": "way\/70247725", "highway": "service" }, "geometry": { "type": "LineString", "coordinates": [ [ 100.6028594, 14.0656247 ], [ 100.6028543, 14.0657426 ] ] } },
{ "type": "Feature", "id": "way\/70247730", "properties": { "@id": "way\/70247730", "highway": "service" }, "geometry": null },
{ "type": "Feature", "id": "way\/70247733", "properties": { "@id": "way\/70247733", "highway": "residential", "lanes": "2", "name": "ถนนมิตรภาพ", "oneway": "no", "name:en": "Thanon Mittraparp" }, "geometry": { "type": "LineString", "coordinates": [ [ 100.6016645, 14.0693137 ], [ 100.601533, 14.0693129 ], [ 100.6011314, 14.0693094 ], [ 100.6009142, 14.0693075 ], [ 100.6003355, 14.0693025 ], [ 100.6003064, 14.0693023 ], [ 100.6002091, 14.0693014 ], [ 100.5993299, 14.0692938 ], [ 100.5990948, 14.0691799 ] ] } },
{ "type": "Feature", "id": "way\/73553176", "properties": { "@id": "way\/73553176", "highway": "residential" }, "geometry": null },
{ "type": "Feature", "id": "way\/73553177", "properties": { "@id": "way\/73553177", "highway": "residential" }, "geometry": null },
{ "type": "Feature", "id": "way\/73553180", "properties": { "@id": "way\/73553180", "highway": "residential" }, "geometry": null },
{ "type": "Feature", "id": "way\/73553184", "properties": { "@id": "way\/73553184", "highway": "residential", "name:en": "D Street" }, "geometry": null },
{ "type": "Feature", "id": "way\/73553185", "properties": { "@id": "way\/73553185", "highway": "residential", "name:en": "4th Street" }, "geometry": null },
{ "type": "Feature", "id": "way\/73553189", "properties": { "@id": "way\/73553189", "highway": "service", "service": "driveway" }, "geometry": null },
{ "type": "Feature", "id": "way\/73553193", "properties": { "@id": "way\/73553193", "highway": "residential", "name": "E-Street (SW)" }, "geometry": null },
{ "type": "Feature", "id": "way\/73553194", "properties": { "@id": "way\/73553194", "highway": "residential" }, "geometry": null },
{ "type": "Feature", "id": "way\/73553198", "properties": { "@id": "way\/73553198", "highway": "residential", "name:en": "Main Street" }, "geometry": null },
{ "type": "Feature", "id": "way\/73954059", "properties": { "@id": "way\/73954059", "highway": "residential", "name:en": "3rd Street" }, "geometry": null },
{ "type": "Feature", "id": "way\/73954060", "properties": { "@id": "way\/73954060", "highway": "residential" }, "geometry": null },
{ "type": "Feature", "id": "way\/80248063", "properties": { "@id": "way\/80248063", "highway": "service", "source": "GPS" }, "geometry": null },
{ "type": "Feature", "id": "way\/80251420", "properties": { "@id": "way\/80251420", "highway": "steps", "bridge": "yes", "layer": "1", "foot": "designated" }, "geometry": null },
{ "type": "Feature", "id": "way\/80251429", "properties": { "@id": "way\/80251429", "highway": "steps", "bridge": "yes", "layer": "1", "foot": "designated" }, "geometry": null },
{ "type": "Feature", "id": "way\/80279408", "properties": { "@id": "way\/80279408", "highway": "service", "service": "parking_aisle" }, "geometry": null },
{ "type": "Feature", "id": "way\/80279412", "properties": { "@id": "way\/80279412", "highway": "residential", "name": "ถนนเอเซี่ยนเกมส์", "name:en": "Thanon Asian Games" }, "geometry": null },
{ "type": "Feature", "id": "way\/80279415", "properties": { "@id": "way\/80279415", "highway": "steps", "foot": "designated" }, "geometry": null },
{ "type": "Feature", "id": "way\/80912763", "properties": { "@id": "way\/80912763", "highway": "residential" }, "geometry": null },
{ "type": "Feature", "id": "way\/80914384", "properties": { "@id": "way\/80914384", "highway": "unclassified", "lanes": "1", "name": "ถนนยูงทอง", "oneway": "yes", "name:en": "Thanon Yoongthong" }, "geometry": null },
{ "type": "Feature", "id": "way\/80914385", "properties": { "@id": "way\/80914385", "highway": "service" }, "geometry": null },
{ "type": "Feature", "id": "way\/80914986", "properties": { "@id": "way\/80914986", "highway": "motorway_link", "lanes": "2", "oneway": "yes", "source": "GPS", "bridge": "viaduct", "layer": "1" }, "geometry": null },
{ "type": "Feature", "id": "way\/80916324", "properties": { "@id": "way\/80916324", "highway": "motorway_link", "lanes": "2", "oneway": "yes", "source": "GPS" }, "geometry": null },
{ "type": "Feature", "id": "way\/80916325", "properties": { "@id": "way\/80916325", "highway": "residential" }, "geometry": null },
{ "type": "Feature", "id": "way\/80916328", "properties": { "@id": "way\/80916328", "highway": "service" }, "geometry": null },
{ "type": "Feature", "id": "way\/80981737", "properties": { "@id": "way\/80981737", "highway": "motorway_link", "lanes": "2", "oneway": "yes", "source": "GPS" }, "geometry": null },
{ "type": "Feature", "id": "way\/82246849", "properties": { "@id": "way\/82246849", "highway": "trunk", "lanes": "3", "name": "ถนนพหลโยธิน", "oneway": "yes", "ref": "1", "source": "GPS; sign", "name:en": "Phahon Yothin Road", "motorcycle": "no", "name:th": "ถนนพหลโยธิน", "surface": "asphalt", "width": "12" }, "geometry": null },
{ "type": "Feature", "id": "way\/117092326", "properties": { "@id": "way\/117092326", "highway": "motorway_link", "lanes": "2", "oneway": "yes", "source": "GPS", "bridge": "viaduct", "layer": "1" }, "geometry": null },
{ "type": "Feature", "id": "way\/141611133", "properties": { "@id": "way\/141611133", "highway": "service" }, "geometry": null },
{ "type": "Feature", "id": "way\/148806997", "properties": { "@id": "way\/148806997", "dual_carriage": "yes", "highway": "secondary", "lanes": "2", "name": "ถนนเชียงรากน้อย", "oneway": "yes", "ref": "3214", "source": "GPS", "bridge": "yes", "layer": "1" }, "geometry": null },
{ "type": "Feature", "id": "way\/148806998", "properties": { "@id": "way\/148806998", "dual_carriage": "yes", "highway": "secondary", "lanes": "2", "name": "ถนนเชียงรากน้อย", "oneway": "yes", "ref": "3214", "bridge": "yes", "layer": "1" }, "geometry": null },
{ "type": "Feature", "id": "way\/150571826", "properties": { "@id": "way\/150571826", "highway": "tertiary", "name": "ถนนพหลโยธิน", "oneway": "yes", "ref": "1", "name:en": "Phahon Yothin Road", "name:th": "ถนนพหลโยธิน" }, "geometry": null },
{ "type": "Feature", "id": "way\/152609770", "properties": { "@id": "way\/152609770", "highway": "service" }, "geometry": null },
{ "type": "Feature", "id": "way\/152609771", "properties": { "@id": "way\/152609771", "highway": "service", "oneway": "no" }, "geometry": { "type": "LineString", "coordinates": [ [ 100.6020089, 14.0702403 ], [ 100.6027029, 14.0702446 ] ] } },
{ "type": "Feature", "id": "way\/152609775", "properties": { "@id": "way\/152609775", "highway": "service", "oneway": "yes" }, "geometry": null },
{ "type": "Feature", "id": "way\/154906084", "properties": { "@id": "way\/154906084", "highway": "residential" }, "geometry": null },
{ "type": "Feature", "id": "way\/154906085", "properties": { "id": "a", "@id": "way\/154906085", "highway": "unclassified", "oneway": "yes" }, "geometry": { "type": "LineString", "coordinates": [ [ 100.6101262, 14.0668341 ], [ 100.610124, 14.0667983 ] ] } },
{ "type": "Feature", "id": "way\/154906086", "properties": { "@id": "way\/154906086", "highway": "residential", "oneway": "no" }, "geometry": { "type": "LineString", "coordinates": [ [ 100.6054132, 14.0674566 ], [ 100.6054072, 14.067738 ], [ 100.6053949, 14.0685228 ], [ 100.6053886, 14.0689282 ], [ 100.6053419, 14.0690235 ], [ 100.6052271, 14.0690651 ], [ 100.6049935, 14.0690634 ], [ 100.6048027, 14.069062 ], [ 100.6046118, 14.0690605 ], [ 100.6043687, 14.0690587 ], [ 100.6042932, 14.0691002 ], [ 100.604262, 14.0691705 ], [ 100.6042598, 14.0693327 ], [ 100.6042457, 14.0702513 ] ] } },
{ "type": "Feature", "id": "way\/154906090", "properties": { "@id": "way\/154906090", "highway": "residential" }, "geometry": { "type": "LineString", "coordinates": [ [ 100.610108, 14.0660955 ], [ 100.610013, 14.0660964 ] ] } },
{ "type": "Feature", "id": "way\/154906092", "properties": { "@id": "way\/154906092", "highway": "residential" }, "geometry": null },
{ "type": "Feature", "id": "way\/165333312", "properties": { "@id": "way\/165333312", "highway": "residential" }, "geometry": null },
{ "type": "Feature", "id": "way\/174967759", "properties": { "@id": "way\/174967759", "highway": "secondary_link", "oneway": "yes", "bridge": "yes", "layer": "1" }, "geometry": null },
{ "type": "Feature", "id": "way\/174967762", "properties": { "@id": "way\/174967762", "highway": "secondary_link", "oneway": "yes", "bridge": "yes", "layer": "2" }, "geometry": null },
{ "type": "Feature", "id": "way\/174967775", "properties": { "@id": "way\/174967775", "dual_carriage": "yes", "highway": "secondary", "lanes": "2", "name": "ถนนเชียงรากน้อย", "oneway": "yes", "ref": "3214", "source": "GPS" }, "geometry": null },
{ "type": "Feature", "id": "way\/174967776", "properties": { "@id": "way\/174967776", "highway": "secondary_link", "oneway": "yes" }, "geometry": null },
{ "type": "Feature", "id": "way\/174967780", "properties": { "@id": "way\/174967780", "dual_carriage": "yes", "highway": "secondary", "lanes": "2", "oneway": "yes", "ref": "3214", "source": "GPS", "layer": "1" }, "geometry": null },
{ "type": "Feature", "id": "way\/174967793", "properties": { "@id": "way\/174967793", "highway": "motorway_link", "lanes": "2", "name": "ถนนเชียงรากน้อย", "oneway": "yes", "source": "GPS" }, "geometry": null },
{ "type": "Feature", "id": "way\/174967794", "properties": { "@id": "way\/174967794", "highway": "secondary_link", "lanes": "2", "name": "ถนนเชียงรากน้อย", "oneway": "yes" }, "geometry": { "type": "LineString", "coordinates": [ [ 100.5985173, 14.0657253 ], [ 100.5988522, 14.0657156 ], [ 100.5989499, 14.0657128 ], [ 100.5991687, 14.0657065 ], [ 100.5992443, 14.0657043 ], [ 100.5993007, 14.0657043 ], [ 100.6007048, 14.0656713 ], [ 100.6015162, 14.0656613 ], [ 100.6028594, 14.0656247 ], [ 100.6047957, 14.0655801 ], [ 100.6050455, 14.065565 ], [ 100.6052039, 14.0655597 ], [ 100.6053421, 14.065555 ], [ 100.6064651, 14.0655037 ], [ 100.6064879, 14.0655032 ], [ 100.6066988, 14.0654713 ], [ 100.6070952, 14.0654114 ], [ 100.6072561, 14.0653871 ] ] } },
{ "type": "Feature", "id": "way\/189776054", "properties": { "@id": "way\/189776054", "highway": "residential", "lanes": "2", "oneway": "no", "source": "GPS" }, "geometry": null },
{ "type": "Feature", "id": "way\/196051627", "properties": { "@id": "way\/196051627", "highway": "unclassified", "lanes": "2" }, "geometry": { "type": "LineString", "coordinates": [ [ 100.6074899, 14.0684177 ], [ 100.6074974, 14.0681818 ], [ 100.6074893, 14.0677982 ], [ 100.6074883, 14.0677286 ] ] } },
{ "type": "Feature", "id": "way\/196052967", "properties": { "@id": "way\/196052967", "highway": "service", "bridge": "yes", "layer": "1" }, "geometry": null },
{ "type": "Feature", "id": "way\/198315001", "properties": { "@id": "way\/198315001", "highway": "residential" }, "geometry": { "type": "LineString", "coordinates": [ [ 100.6046001, 14.070253 ], [ 100.6045988, 14.0703118 ], [ 100.6046021, 14.0703912 ], [ 100.604601, 14.0705306 ], [ 100.6045986, 14.0720413 ], [ 100.6045985, 14.0720999 ] ] } },
{ "type": "Feature", "id": "way\/199930812", "properties": { "@id": "way\/199930812", "highway": "service", "oneway": "yes" }, "geometry": null },
{ "type": "Feature", "id": "way\/218329833", "properties": { "@id": "way\/218329833", "highway": "service" }, "geometry": null },
{ "type": "Feature", "id": "way\/218368976", "properties": { "@id": "way\/218368976", "highway": "residential" }, "geometry": null },
{ "type": "Feature", "id": "way\/218368988", "properties": { "@id": "way\/218368988", "highway": "residential" }, "geometry": null },
{ "type": "Feature", "id": "way\/218369032", "properties": { "@id": "way\/218369032", "highway": "residential" }, "geometry": null },
{ "type": "Feature", "id": "way\/218369044", "properties": { "@id": "way\/218369044", "highway": "residential" }, "geometry": null },
{ "type": "Feature", "id": "way\/218369062", "properties": { "@id": "way\/218369062", "highway": "residential" }, "geometry": null },
{ "type": "Feature", "id": "way\/218369070", "properties": { "@id": "way\/218369070", "highway": "residential" }, "geometry": null },
{ "type": "Feature", "id": "way\/220876032", "properties": { "@id": "way\/220876032", "highway": "service" }, "geometry": null },
{ "type": "Feature", "id": "way\/220876034", "properties": { "@id": "way\/220876034", "highway": "service" }, "geometry": null },
{ "type": "Feature", "id": "way\/220876035", "properties": { "@id": "way\/220876035", "highway": "service", "service": "parking_aisle" }, "geometry": null },
{ "type": "Feature", "id": "way\/220876037", "properties": { "@id": "way\/220876037", "highway": "service", "service": "parking_aisle", "tunnel": "building_passage" }, "geometry": null },
{ "type": "Feature", "id": "way\/220876040", "properties": { "@id": "way\/220876040", "highway": "service" }, "geometry": null },
{ "type": "Feature", "id": "way\/220879922", "properties": { "@id": "way\/220879922", "highway": "steps", "foot": "designated" }, "geometry": null },
{ "type": "Feature", "id": "way\/220880210", "properties": { "@id": "way\/220880210", "highway": "steps", "foot": "designated" }, "geometry": null },
{ "type": "Feature", "id": "way\/228205846", "properties": { "@id": "way\/228205846", "highway": "motorway_link", "oneway": "yes", "source": "GPS" }, "geometry": null },
{ "type": "Feature", "id": "way\/228205858", "properties": { "@id": "way\/228205858", "highway": "service", "service": "parking_aisle" }, "geometry": null },
{ "type": "Feature", "id": "way\/228205859", "properties": { "@id": "way\/228205859", "highway": "service" }, "geometry": null },
{ "type": "Feature", "id": "way\/228262655", "properties": { "@id": "way\/228262655", "highway": "steps", "foot": "designated" }, "geometry": null },
{ "type": "Feature", "id": "way\/228262663", "properties": { "@id": "way\/228262663", "highway": "steps", "foot": "designated" }, "geometry": null },
{ "type": "Feature", "id": "way\/228262670", "properties": { "@id": "way\/228262670", "highway": "steps", "foot": "designated" }, "geometry": null },
{ "type": "Feature", "id": "way\/228262674", "properties": { "@id": "way\/228262674", "highway": "service", "service": "parking_aisle" }, "geometry": null },
{ "type": "Feature", "id": "way\/228262679", "properties": { "@id": "way\/228262679", "highway": "service", "service": "parking_aisle" }, "geometry": null },
{ "type": "Feature", "id": "way\/228262680", "properties": { "@id": "way\/228262680", "highway": "service", "oneway": "yes" }, "geometry": null },
{ "type": "Feature", "id": "way\/228262683", "properties": { "@id": "way\/228262683", "highway": "service", "oneway": "yes" }, "geometry": { "type": "LineString", "coordinates": [ [ 100.5993007, 14.0657043 ], [ 100.5996943, 14.0658008 ], [ 100.6010636, 14.0657805 ], [ 100.6015162, 14.0656613 ] ] } },
{ "type": "Feature", "id": "way\/228366259", "properties": { "@id": "way\/228366259", "highway": "service", "service": "parking_aisle" }, "geometry": null },
{ "type": "Feature", "id": "way\/228366260", "properties": { "@id": "way\/228366260", "highway": "service" }, "geometry": { "type": "LineString", "coordinates": [ [ 100.6051903, 14.0661465 ], [ 100.6050922, 14.0661458 ] ] } },
{ "type": "Feature", "id": "way\/228366261", "properties": { "@id": "way\/228366261", "highway": "service", "service": "parking_aisle" }, "geometry": null },
{ "type": "Feature", "id": "way\/228366262", "properties": { "@id": "way\/228366262", "highway": "steps", "foot": "designated" }, "geometry": null },
{ "type": "Feature", "id": "way\/228366264", "properties": { "@id": "way\/228366264", "highway": "unclassified", "lanes": "2", "name": "ถนนประชาสันติ", "oneway": "yes", "name:en": "Thanon Pracha Santi" }, "geometry": { "type": "LineString", "coordinates": [ [ 100.6052188, 14.0674554 ], [ 100.60521, 14.0673216 ], [ 100.6052101, 14.0672895 ], [ 100.6052113, 14.0667327 ], [ 100.6052045, 14.0665444 ], [ 100.6051903, 14.0661465 ] ] } },
{ "type": "Feature", "id": "way\/228367563", "properties": { "@id": "way\/228367563", "highway": "service", "service": "parking_aisle" }, "geometry": null },
{ "type": "Feature", "id": "way\/228367564", "properties": { "@id": "way\/228367564", "highway": "service", "bridge": "yes", "layer": "1" }, "geometry": null },
{ "type": "Feature", "id": "way\/228367565", "properties": { "@id": "way\/228367565", "highway": "service", "service": "parking_aisle" }, "geometry": null },
{ "type": "Feature", "id": "way\/228367566", "properties": { "@id": "way\/228367566", "highway": "service" }, "geometry": null },
{ "type": "Feature", "id": "way\/228367567", "properties": { "@id": "way\/228367567", "highway": "service" }, "geometry": null },
{ "type": "Feature", "id": "way\/228367568", "properties": { "@id": "way\/228367568", "highway": "service", "bridge": "yes", "layer": "1" }, "geometry": null },
{ "type": "Feature", "id": "way\/228367570", "properties": { "@id": "way\/228367570", "highway": "service" }, "geometry": null },
{ "type": "Feature", "id": "way\/228375290", "properties": { "@id": "way\/228375290", "highway": "service", "service": "parking_aisle" }, "geometry": null },
{ "type": "Feature", "id": "way\/228375291", "properties": { "@id": "way\/228375291", "highway": "service", "service": "parking_aisle" }, "geometry": null },
{ "type": "Feature", "id": "way\/228375292", "properties": { "@id": "way\/228375292", "highway": "service", "service": "parking_aisle" }, "geometry": null },
{ "type": "Feature", "id": "way\/228375293", "properties": { "@id": "way\/228375293", "highway": "service" }, "geometry": null },
{ "type": "Feature", "id": "way\/228375294", "properties": { "@id": "way\/228375294", "highway": "service", "service": "parking_aisle" }, "geometry": null },
{ "type": "Feature", "id": "way\/228375295", "properties": { "@id": "way\/228375295", "highway": "service", "service": "parking_aisle" }, "geometry": null },
{ "type": "Feature", "id": "way\/228375296", "properties": { "@id": "way\/228375296", "highway": "service", "service": "parking_aisle" }, "geometry": null },
{ "type": "Feature", "id": "way\/228375297", "properties": { "@id": "way\/228375297", "highway": "service", "service": "parking_aisle" }, "geometry": null },
{ "type": "Feature", "id": "way\/228375299", "properties": { "@id": "way\/228375299", "highway": "service", "service": "parking_aisle" }, "geometry": null },
{ "type": "Feature", "id": "way\/228375300", "properties": { "@id": "way\/228375300", "highway": "service", "service": "parking_aisle" }, "geometry": null },
{ "type": "Feature", "id": "way\/228375302", "properties": { "@id": "way\/228375302", "highway": "service", "service": "parking_aisle" }, "geometry": null },
{ "type": "Feature", "id": "way\/228375306", "properties": { "@id": "way\/228375306", "highway": "service", "service": "parking_aisle" }, "geometry": null },
{ "type": "Feature", "id": "way\/228375307", "properties": { "@id": "way\/228375307", "highway": "service", "service": "parking_aisle" }, "geometry": null },
{ "type": "Feature", "id": "way\/228375309", "properties": { "@id": "way\/228375309", "highway": "service", "service": "parking_aisle" }, "geometry": null },
{ "type": "Feature", "id": "way\/228375310", "properties": { "@id": "way\/228375310", "highway": "service", "service": "parking_aisle" }, "geometry": null },
{ "type": "Feature", "id": "way\/228375311", "properties": { "@id": "way\/228375311", "highway": "service", "oneway": "yes", "service": "parking_aisle" }, "geometry": null },
{ "type": "Feature", "id": "way\/228375312", "properties": { "@id": "way\/228375312", "highway": "service", "oneway": "yes", "service": "parking_aisle" }, "geometry": null },
{ "type": "Feature", "id": "way\/228375314", "properties": { "@id": "way\/228375314", "highway": "service", "oneway": "yes", "service": "parking_aisle" }, "geometry": null },
{ "type": "Feature", "id": "way\/228375315", "properties": { "@id": "way\/228375315", "highway": "service", "service": "parking_aisle" }, "geometry": null },
{ "type": "Feature", "id": "way\/228375316", "properties": { "@id": "way\/228375316", "highway": "service", "oneway": "yes", "service": "parking_aisle" }, "geometry": null },
{ "type": "Feature", "id": "way\/228379903", "properties": { "@id": "way\/228379903", "highway": "service", "service": "parking_aisle" }, "geometry": null },
{ "type": "Feature", "id": "way\/228379904", "properties": { "@id": "way\/228379904", "highway": "service", "service": "parking_aisle" }, "geometry": null },
{ "type": "Feature", "id": "way\/228492886", "properties": { "@id": "way\/228492886", "highway": "service", "service": "parking_aisle" }, "geometry": null },
{ "type": "Feature", "id": "way\/228492887", "properties": { "@id": "way\/228492887", "highway": "service", "oneway": "yes", "service": "parking_aisle" }, "geometry": null },
{ "type": "Feature", "id": "way\/228496872", "properties": { "@id": "way\/228496872", "highway": "service" }, "geometry": null },
{ "type": "Feature", "id": "way\/228496873", "properties": { "@id": "way\/228496873", "highway": "service" }, "geometry": null },
{ "type": "Feature", "id": "way\/228499516", "properties": { "@id": "way\/228499516", "highway": "service", "service": "parking_aisle" }, "geometry": null },
{ "type": "Feature", "id": "way\/228499517", "properties": { "@id": "way\/228499517", "highway": "service", "service": "parking_aisle" }, "geometry": null },
{ "type": "Feature", "id": "way\/228499518", "properties": { "@id": "way\/228499518", "highway": "service", "service": "parking_aisle" }, "geometry": null },
{ "type": "Feature", "id": "way\/228499519", "properties": { "@id": "way\/228499519", "highway": "service", "service": "parking_aisle" }, "geometry": null },
{ "type": "Feature", "id": "way\/228499521", "properties": { "@id": "way\/228499521", "highway": "service", "service": "parking_aisle" }, "geometry": null },
{ "type": "Feature", "id": "way\/228531373", "properties": { "@id": "way\/228531373", "highway": "service", "oneway": "yes", "service": "parking_aisle" }, "geometry": null },
{ "type": "Feature", "id": "way\/228535353", "properties": { "@id": "way\/228535353", "highway": "service" }, "geometry": null },
{ "type": "Feature", "id": "way\/228535362", "properties": { "@id": "way\/228535362", "highway": "service" }, "geometry": null },
{ "type": "Feature", "id": "way\/228536538", "properties": { "@id": "way\/228536538", "highway": "service", "oneway": "yes", "service": "parking_aisle" }, "geometry": null },
{ "type": "Feature", "id": "way\/228536539", "properties": { "@id": "way\/228536539", "highway": "service", "oneway": "yes", "service": "parking_aisle" }, "geometry": null },
{ "type": "Feature", "id": "way\/228536541", "properties": { "@id": "way\/228536541", "highway": "service", "oneway": "yes", "service": "parking_aisle" }, "geometry": null },
{ "type": "Feature", "id": "way\/228536543", "properties": { "@id": "way\/228536543", "highway": "service", "oneway": "yes", "service": "parking_aisle" }, "geometry": null },
{ "type": "Feature", "id": "way\/228625803", "properties": { "@id": "way\/228625803", "highway": "service" }, "geometry": null },
{ "type": "Feature", "id": "way\/228625804", "properties": { "@id": "way\/228625804", "highway": "service", "service": "parking_aisle" }, "geometry": { "type": "LineString", "coordinates": [ [ 100.5991722, 14.0662567 ], [ 100.5992426, 14.0662579 ], [ 100.5993783, 14.0662575 ], [ 100.599546, 14.0662581 ], [ 100.5996944, 14.0662587 ], [ 100.5998484, 14.0662593 ], [ 100.5998497, 14.066668 ], [ 100.5998511, 14.0671259 ], [ 100.5996917, 14.0671259 ], [ 100.599557, 14.0670406 ], [ 100.5993783, 14.0669366 ], [ 100.5992143, 14.0668729 ], [ 100.5991309, 14.0668406 ], [ 100.598962, 14.0668095 ], [ 100.5989213, 14.0667773 ] ] } },
{ "type": "Feature", "id": "way\/228625805", "properties": { "@id": "way\/228625805", "highway": "service", "service": "parking_aisle" }, "geometry": { "type": "LineString", "coordinates": [ [ 100.5984095, 14.0669296 ], [ 100.5984083, 14.0668108 ] ] } },
{ "type": "Feature", "id": "way\/228625806", "properties": { "@id": "way\/228625806", "highway": "service", "service": "parking_aisle" }, "geometry": { "type": "LineString", "coordinates": [ [ 100.5976321, 14.066643 ], [ 100.5988959, 14.0666396 ] ] } },
{ "type": "Feature", "id": "way\/228625807", "properties": { "@id": "way\/228625807", "highway": "residential", "lanes": "2", "name": "ถนนเอเซี่ยนเกมส์", "oneway": "yes", "name:en": "Thanon Asian Games" }, "geometry": { "type": "LineString", "coordinates": [ [ 100.5992426, 14.0662579 ], [ 100.5992482, 14.0659712 ], [ 100.599246, 14.0659045 ], [ 100.5992443, 14.0657043 ] ] } },
{ "type": "Feature", "id": "way\/228625808", "properties": { "@id": "way\/228625808", "highway": "service", "service": "parking_aisle" }, "geometry": { "type": "LineString", "coordinates": [ [ 100.5993783, 14.0669366 ], [ 100.5993783, 14.0662575 ] ] } },
{ "type": "Feature", "id": "way\/228625809", "properties": { "@id": "way\/228625809", "highway": "service", "service": "parking_aisle" }, "geometry": { "type": "LineString", "coordinates": [ [ 100.5992143, 14.0668729 ], [ 100.5992201, 14.0666952 ] ] } },
{ "type": "Feature", "id": "way\/228625810", "properties": { "@id": "way\/228625810", "highway": "service", "service": "parking_aisle" }, "geometry": { "type": "LineString", "coordinates": [ [ 100.5996917, 14.0671259 ], [ 100.5996944, 14.0662587 ] ] } },
{ "type": "Feature", "id": "way\/228625811", "properties": { "@id": "way\/228625811", "highway": "service", "service": "parking_aisle" }, "geometry": { "type": "LineString", "coordinates": [ [ 100.599557, 14.0670406 ], [ 100.599546, 14.0662581 ] ] } },
{ "type": "Feature", "id": "way\/228625812", "properties": { "@id": "way\/228625812", "highway": "residential", "lanes": "3", "name": "ถนนเอเซี่ยนเกมส์", "oneway": "no", "name:en": "Thanon Asian Games", "lanes:forward": "2" }, "geometry": { "type": "LineString", "coordinates": [ [ 100.5979611, 14.0686825 ], [ 100.5978317, 14.0684316 ], [ 100.5977556, 14.0681812 ], [ 100.5977445, 14.0679584 ], [ 100.5978074, 14.0676148 ], [ 100.5979304, 14.0673174 ] ] } },
{ "type": "Feature", "id": "way\/228625813", "properties": { "@id": "way\/228625813", "highway": "service", "service": "parking_aisle" }, "geometry": { "type": "LineString", "coordinates": [ [ 100.5991599, 14.0664491 ], [ 100.5989331, 14.0664451 ], [ 100.5976444, 14.0664356 ], [ 100.5976321, 14.066643 ], [ 100.5976226, 14.0668035 ], [ 100.5976133, 14.0669598 ], [ 100.5983639, 14.0669602 ] ] } },
{ "type": "Feature", "id": "way\/228625814", "properties": { "@id": "way\/228625814", "highway": "residential", "lanes": "2", "name": "ถนนเอเซี่ยนเกมส์", "oneway": "yes", "name:en": "Thanon Asian Games", "junction": "roundabout" }, "geometry": { "type": "LineString", "coordinates": [ [ 100.5980466, 14.0688354 ], [ 100.5980274, 14.0687466 ], [ 100.5979611, 14.0686825 ] ] } },
{ "type": "Feature", "id": "way\/228625815", "properties": { "@id": "way\/228625815", "highway": "service", "service": "parking_aisle" }, "geometry": { "type": "LineString", "coordinates": [ [ 100.5976226, 14.0668035 ], [ 100.5984083, 14.0668108 ], [ 100.5985599, 14.0667957 ], [ 100.5987368, 14.0667486 ], [ 100.5988573, 14.0666845 ], [ 100.5988959, 14.0666396 ], [ 100.5989156, 14.0666166 ], [ 100.5989331, 14.0665563 ], [ 100.5989331, 14.0664451 ] ] } },
{ "type": "Feature", "id": "way\/228626051", "properties": { "@id": "way\/228626051", "highway": "service", "oneway": "yes", "service": "parking_aisle" }, "geometry": null },
{ "type": "Feature", "id": "way\/228626052", "properties": { "@id": "way\/228626052", "highway": "service", "bridge": "yes", "layer": "1", "service": "parking_aisle" }, "geometry": null },
{ "type": "Feature", "id": "way\/228626053", "properties": { "@id": "way\/228626053", "highway": "service", "oneway": "yes", "service": "parking_aisle" }, "geometry": null },
{ "type": "Feature", "id": "way\/228626054", "properties": { "@id": "way\/228626054", "highway": "service", "oneway": "yes", "service": "parking_aisle" }, "geometry": null },
{ "type": "Feature", "id": "way\/228626055", "properties": { "@id": "way\/228626055", "highway": "service", "service": "parking_aisle" }, "geometry": null },
{ "type": "Feature", "id": "way\/228626056", "properties": { "@id": "way\/228626056", "highway": "service", "oneway": "yes", "service": "parking_aisle" }, "geometry": null },
{ "type": "Feature", "id": "way\/228626057", "properties": { "@id": "way\/228626057", "highway": "residential" }, "geometry": null },
{ "type": "Feature", "id": "way\/228627676", "properties": { "@id": "way\/228627676", "highway": "service", "oneway": "yes", "service": "parking_aisle" }, "geometry": null },
{ "type": "Feature", "id": "way\/228627677", "properties": { "@id": "way\/228627677", "highway": "service", "service": "parking_aisle" }, "geometry": null },
{ "type": "Feature", "id": "way\/228627678", "properties": { "@id": "way\/228627678", "highway": "service", "service": "parking_aisle" }, "geometry": null },
{ "type": "Feature", "id": "way\/228627679", "properties": { "@id": "way\/228627679", "highway": "service", "service": "parking_aisle" }, "geometry": null },
{ "type": "Feature", "id": "way\/228627682", "properties": { "@id": "way\/228627682", "highway": "service", "oneway": "yes", "service": "parking_aisle" }, "geometry": null },
{ "type": "Feature", "id": "way\/228652826", "properties": { "@id": "way\/228652826", "highway": "service", "oneway": "yes" }, "geometry": { "type": "LineString", "coordinates": [ [ 100.6087219, 14.0674158 ], [ 100.6087265, 14.0675422 ] ] } },
{ "type": "Feature", "id": "way\/228652827", "properties": { "@id": "way\/228652827", "highway": "service", "oneway": "yes" }, "geometry": null },
{ "type": "Feature", "id": "way\/228652828", "properties": { "@id": "way\/228652828", "highway": "residential" }, "geometry": null },
{ "type": "Feature", "id": "way\/228652829", "properties": { "@id": "way\/228652829", "highway": "service", "oneway": "yes" }, "geometry": { "type": "LineString", "coordinates": [ [ 100.6088796, 14.0675413 ], [ 100.6088778, 14.0674203 ] ] } },
{ "type": "Feature", "id": "way\/228652830", "properties": { "@id": "way\/228652830", "highway": "service", "service": "parking_aisle" }, "geometry": null },
{ "type": "Feature", "id": "way\/228652831", "properties": { "@id": "way\/228652831", "highway": "residential" }, "geometry": null },
{ "type": "Feature", "id": "way\/228652832", "properties": { "@id": "way\/228652832", "highway": "service", "oneway": "yes" }, "geometry": null },
{ "type": "Feature", "id": "way\/228652833", "properties": { "@id": "way\/228652833", "highway": "residential" }, "geometry": null },
{ "type": "Feature", "id": "way\/228652834", "properties": { "@id": "way\/228652834", "highway": "unclassified", "lanes": "2", "name": "ถนนพิทักษ์ธรรม", "oneway": "yes", "name:en": "Thanon Pitaktham" }, "geometry": { "type": "LineString", "coordinates": [ [ 100.6099429, 14.0674049 ], [ 100.6100229, 14.0673842 ], [ 100.6100918, 14.0673358 ], [ 100.6101362, 14.0672733 ], [ 100.6101262, 14.0668341 ] ] } },
{ "type": "Feature", "id": "way\/228652835", "properties": { "@id": "way\/228652835", "highway": "unclassified", "oneway": "yes" }, "geometry": { "type": "LineString", "coordinates": [ [ 100.6099692, 14.0653365 ], [ 100.6099782, 14.0654933 ], [ 100.610013, 14.0660964 ], [ 100.610025, 14.0664323 ], [ 100.6100257, 14.0664917 ], [ 100.610027, 14.0665926 ] ] } },
{ "type": "Feature", "id": "way\/228652836", "properties": { "@id": "way\/228652836", "highway": "service", "oneway": "yes" }, "geometry": { "type": "LineString", "coordinates": [ [ 100.6099782, 14.0654933 ], [ 100.610093, 14.0654883 ] ] } },
{ "type": "Feature", "id": "way\/228652837", "properties": { "@id": "way\/228652837", "highway": "service", "service": "parking_aisle" }, "geometry": null },
{ "type": "Feature", "id": "way\/228652838", "properties": { "@id": "way\/228652838", "highway": "service", "oneway": "yes" }, "geometry": { "type": "LineString", "coordinates": [ [ 100.6088315, 14.0677153 ], [ 100.6088783, 14.0676895 ], [ 100.6089109, 14.0676156 ], [ 100.6088796, 14.0675413 ], [ 100.6088028, 14.0675106 ], [ 100.608799, 14.0675122 ], [ 100.6087265, 14.0675422 ], [ 100.6086966, 14.0676249 ], [ 100.6087424, 14.0677005 ], [ 100.6088315, 14.0677153 ] ] } },
{ "type": "Feature", "id": "way\/228652839", "properties": { "@id": "way\/228652839", "highway": "unclassified", "lanes": "2", "name": "ถนนพิทักษ์ธรรม", "oneway": "yes", "name:en": "Thanon Pitaktham" }, "geometry": { "type": "LineString", "coordinates": [ [ 100.6100321, 14.0668351 ], [ 100.6099306, 14.0668974 ], [ 100.6099429, 14.0674049 ] ] } },
{ "type": "Feature", "id": "way\/228653390", "properties": { "@id": "way\/228653390", "highway": "unclassified", "lanes": "2", "oneway": "yes", "junction": "roundabout" }, "geometry": { "type": "LineString", "coordinates": [ [ 100.6074293, 14.0685492 ], [ 100.6074577, 14.0685709 ], [ 100.6074929, 14.0685788 ], [ 100.6075308, 14.0685703 ], [ 100.6075606, 14.068546 ], [ 100.6075754, 14.068513 ], [ 100.6075738, 14.068477 ], [ 100.6075564, 14.0684453 ], [ 100.6075264, 14.0684241 ], [ 100.6074899, 14.0684177 ], [ 100.6074602, 14.0684244 ], [ 100.6074351, 14.068441 ], [ 100.6074178, 14.0684653 ], [ 100.6074107, 14.068494 ], [ 100.6074147, 14.0685233 ], [ 100.6074293, 14.0685492 ] ] } },
{ "type": "Feature", "id": "way\/228653391", "properties": { "@id": "way\/228653391", "highway": "service", "service": "parking_aisle" }, "geometry": null },
{ "type": "Feature", "id": "way\/228653393", "properties": { "@id": "way\/228653393", "highway": "unclassified", "lanes": "2" }, "geometry": { "type": "LineString", "coordinates": [ [ 100.6074293, 14.0685492 ], [ 100.6067703, 14.0685255 ], [ 100.6064492, 14.0685249 ], [ 100.6062693, 14.0685245 ] ] } },
{ "type": "Feature", "id": "way\/228653394", "properties": { "@id": "way\/228653394", "highway": "unclassified", "lanes": "2" }, "geometry": null },
{ "type": "Feature", "id": "way\/228653395", "properties": { "@id": "way\/228653395", "highway": "service", "oneway": "yes", "service": "parking_aisle" }, "geometry": null },
{ "type": "Feature", "id": "way\/228653396", "properties": { "@id": "way\/228653396", "highway": "service", "oneway": "yes", "service": "parking_aisle" }, "geometry": null },
{ "type": "Feature", "id": "way\/228653397", "properties": { "@id": "way\/228653397", "highway": "service", "oneway": "yes", "service": "parking_aisle" }, "geometry": null },
{ "type": "Feature", "id": "way\/228658897", "properties": { "@id": "way\/228658897", "highway": "unclassified", "lanes": "2" }, "geometry": { "type": "LineString", "coordinates": [ [ 100.6062778, 14.0674356 ], [ 100.6062744, 14.0676272 ] ] } },
{ "type": "Feature", "id": "way\/228658899", "properties": { "@id": "way\/228658899", "highway": "service", "oneway": "yes", "service": "parking_aisle" }, "geometry": null },
{ "type": "Feature", "id": "way\/228658900", "properties": { "@id": "way\/228658900", "highway": "service", "service": "parking_aisle" }, "geometry": null },
{ "type": "Feature", "id": "way\/228658901", "properties": { "@id": "way\/228658901", "highway": "service", "service": "parking_aisle" }, "geometry": null },
{ "type": "Feature", "id": "way\/228663158", "properties": { "@id": "way\/228663158", "highway": "service", "service": "parking_aisle" }, "geometry": null },
{ "type": "Feature", "id": "way\/228663165", "properties": { "@id": "way\/228663165", "highway": "service", "service": "parking_aisle" }, "geometry": null },
{ "type": "Feature", "id": "way\/228663166", "properties": { "@id": "way\/228663166", "highway": "service", "service": "parking_aisle" }, "geometry": null },
{ "type": "Feature", "id": "way\/228663167", "properties": { "@id": "way\/228663167", "highway": "service", "service": "parking_aisle" }, "geometry": null },
{ "type": "Feature", "id": "way\/228663170", "properties": { "@id": "way\/228663170", "highway": "service", "service": "parking_aisle" }, "geometry": null },
{ "type": "Feature", "id": "way\/228664524", "properties": { "@id": "way\/228664524", "highway": "service", "service": "parking_aisle" }, "geometry": { "type": "LineString", "coordinates": [ [ 100.6129736, 14.0677115 ], [ 100.613631, 14.0677138 ] ] } },
{ "type": "Feature", "id": "way\/228664525", "properties": { "@id": "way\/228664525", "highway": "service", "service": "parking_aisle" }, "geometry": { "type": "LineString", "coordinates": [ [ 100.6142314, 14.0675132 ], [ 100.6143904, 14.067647 ] ] } },
{ "type": "Feature", "id": "way\/228664526", "properties": { "@id": "way\/228664526", "highway": "service", "service": "parking_aisle" }, "geometry": { "type": "LineString", "coordinates": [ [ 100.6129736, 14.0672036 ], [ 100.6136403, 14.0672036 ] ] } },
{ "type": "Feature", "id": "way\/228664527", "properties": { "@id": "way\/228664527", "highway": "service", "service": "parking_aisle" }, "geometry": { "type": "LineString", "coordinates": [ [ 100.6129736, 14.0675505 ], [ 100.613634, 14.0675506 ] ] } },
{ "type": "Feature", "id": "way\/228664528", "properties": { "@id": "way\/228664528", "highway": "service", "service": "parking_aisle" }, "geometry": { "type": "LineString", "coordinates": [ [ 100.6129736, 14.0673873 ], [ 100.613637, 14.0673828 ] ] } },
{ "type": "Feature", "id": "way\/228664529", "properties": { "@id": "way\/228664529", "highway": "service" }, "geometry": { "type": "LineString", "coordinates": [ [ 100.6129736, 14.0668105 ], [ 100.6129736, 14.0672036 ], [ 100.6129736, 14.0673873 ], [ 100.6129736, 14.0675505 ], [ 100.6129736, 14.0677115 ], [ 100.6129736, 14.0678793 ], [ 100.6129736, 14.0679124 ], [ 100.6129736, 14.0679576 ], [ 100.6130232, 14.0680057 ], [ 100.6131091, 14.0680057 ], [ 100.6133306, 14.0679704 ], [ 100.6134397, 14.0679961 ], [ 100.6135157, 14.0680762 ], [ 100.6135257, 14.0681628 ], [ 100.6135126, 14.0682769 ], [ 100.6135333, 14.068404 ], [ 100.6135815, 14.0685046 ], [ 100.613602, 14.0685785 ], [ 100.6135963, 14.0686383 ], [ 100.6136275, 14.0686941 ], [ 100.6137105, 14.0687361 ], [ 100.6137209, 14.0689089 ], [ 100.6137313, 14.0691361 ], [ 100.613761, 14.0691877 ] ] } },
{ "type": "Feature", "id": "way\/228664530", "properties": { "@id": "way\/228664530", "highway": "service", "service": "parking_aisle" }, "geometry": { "type": "LineString", "coordinates": [ [ 100.6137618, 14.0675145 ], [ 100.6142314, 14.0675132 ], [ 100.6142314, 14.0670216 ] ] } },
{ "type": "Feature", "id": "way\/228664531", "properties": { "@id": "way\/228664531", "highway": "service" }, "geometry": { "type": "LineString", "coordinates": [ [ 100.6137264, 14.0702684 ], [ 100.6137256, 14.0702118 ] ] } },
{ "type": "Feature", "id": "way\/228664532", "properties": { "@id": "way\/228664532", "highway": "service" }, "geometry": { "type": "LineString", "coordinates": [ [ 100.6136403, 14.0670179 ], [ 100.6137672, 14.0670233 ], [ 100.6142314, 14.0670216 ], [ 100.6145317, 14.0670222 ], [ 100.6145948, 14.0670225 ], [ 100.614637, 14.0669953 ], [ 100.6157702, 14.0669627 ], [ 100.6158145, 14.0670005 ], [ 100.6158574, 14.0670447 ], [ 100.6159405, 14.0671644 ], [ 100.6159446, 14.0675195 ] ] } },
{ "type": "Feature", "id": "way\/228664533", "properties": { "@id": "way\/228664533", "highway": "service" }, "geometry": { "type": "LineString", "coordinates": [ [ 100.6136356, 14.067877 ], [ 100.6137588, 14.0678763 ], [ 100.6137572, 14.0678025 ], [ 100.6137618, 14.0675145 ], [ 100.6137672, 14.0670233 ] ] } },
{ "type": "Feature", "id": "way\/228664534", "properties": { "@id": "way\/228664534", "highway": "service" }, "geometry": { "type": "LineString", "coordinates": [ [ 100.6145317, 14.0670222 ], [ 100.6145364, 14.0675009 ], [ 100.6143904, 14.067647 ], [ 100.6142372, 14.0678002 ], [ 100.6137572, 14.0678025 ] ] } },
{ "type": "Feature", "id": "way\/228664535", "properties": { "@id": "way\/228664535", "highway": "service", "service": "parking_aisle" }, "geometry": { "type": "LineString", "coordinates": [ [ 100.6129736, 14.0678793 ], [ 100.6136356, 14.067877 ], [ 100.613631, 14.0677138 ], [ 100.613634, 14.0675506 ], [ 100.613637, 14.0673828 ], [ 100.6136403, 14.0672036 ], [ 100.6136403, 14.0670179 ], [ 100.6136403, 14.066805 ] ] } },
{ "type": "Feature", "id": "way\/228665838", "properties": { "@id": "way\/228665838", "highway": "service", "oneway": "yes" }, "geometry": { "type": "LineString", "coordinates": [ [ 100.6161302, 14.0675881 ], [ 100.6167935, 14.067588 ], [ 100.6168547, 14.067588 ], [ 100.6168515, 14.0678266 ], [ 100.6168485, 14.0680559 ], [ 100.616845, 14.0683155 ], [ 100.616854, 14.0685497 ], [ 100.6168619, 14.068781 ], [ 100.6168667, 14.069043 ], [ 100.6168716, 14.0693378 ], [ 100.6168789, 14.0698342 ], [ 100.6167492, 14.0700183 ], [ 100.6167521, 14.0702841 ] ] } },
{ "type": "Feature", "id": "way\/228665839", "properties": { "@id": "way\/228665839", "highway": "service", "oneway": "yes", "service": "parking_aisle" }, "geometry": { "type": "LineString", "coordinates": [ [ 100.616259, 14.0690477 ], [ 100.6168667, 14.069043 ] ] } },
{ "type": "Feature", "id": "way\/228665840", "properties": { "@id": "way\/228665840", "highway": "service", "oneway": "yes", "service": "parking_aisle" }, "geometry": { "type": "LineString", "coordinates": [ [ 100.6161382, 14.0683108 ], [ 100.616845, 14.0683155 ] ] } },
{ "type": "Feature", "id": "way\/228665842", "properties": { "@id": "way\/228665842", "highway": "service", "oneway": "yes", "service": "parking_aisle" }, "geometry": { "type": "LineString", "coordinates": [ [ 100.616854, 14.0685497 ], [ 100.6161409, 14.0685518 ] ] } },
{ "type": "Feature", "id": "way\/228665843", "properties": { "@id": "way\/228665843", "highway": "service", "oneway": "yes", "service": "parking_aisle" }, "geometry": { "type": "LineString", "coordinates": [ [ 100.6161328, 14.0678266 ], [ 100.6168515, 14.0678266 ] ] } },
{ "type": "Feature", "id": "way\/228665844", "properties": { "@id": "way\/228665844", "highway": "service", "oneway": "yes", "service": "parking_aisle" }, "geometry": { "type": "LineString", "coordinates": [ [ 100.6168485, 14.0680559 ], [ 100.6161354, 14.0680559 ] ] } },
{ "type": "Feature", "id": "way\/228665845", "properties": { "@id": "way\/228665845", "highway": "service", "oneway": "yes", "service": "parking_aisle" }, "geometry": { "type": "LineString", "coordinates": [ [ 100.6161479, 14.0687811 ], [ 100.6168619, 14.068781 ] ] } },
{ "type": "Feature", "id": "way\/228665846", "properties": { "@id": "way\/228665846", "highway": "service" }, "geometry": { "type": "LineString", "coordinates": [ [ 100.6168716, 14.0693378 ], [ 100.6164423, 14.0693027 ], [ 100.6163507, 14.0692302 ], [ 100.616259, 14.0690477 ], [ 100.6161479, 14.0687811 ] ] } },
{ "type": "Feature", "id": "way\/228671349", "properties": { "@id": "way\/228671349", "highway": "service" }, "geometry": null },
{ "type": "Feature", "id": "way\/228671350", "properties": { "@id": "way\/228671350", "highway": "service" }, "geometry": null },
{ "type": "Feature", "id": "way\/228671352", "properties": { "@id": "way\/228671352", "highway": "service", "service": "parking_aisle" }, "geometry": null },
{ "type": "Feature", "id": "way\/228671353", "properties": { "@id": "way\/228671353", "highway": "service", "oneway": "yes" }, "geometry": null },
{ "type": "Feature", "id": "way\/228677757", "properties": { "@id": "way\/228677757", "highway": "unclassified", "oneway": "yes", "bridge": "yes", "layer": "1" }, "geometry": { "type": "LineString", "coordinates": [ [ 100.610027, 14.0665926 ], [ 100.610031, 14.0667934 ] ] } },
{ "type": "Feature", "id": "way\/228677759", "properties": { "@id": "way\/228677759", "highway": "unclassified", "oneway": "yes", "bridge": "yes", "layer": "1" }, "geometry": { "type": "LineString", "coordinates": [ [ 100.610124, 14.0667983 ], [ 100.61012, 14.0665869 ] ] } },
{ "type": "Feature", "id": "way\/228677761", "properties": { "@id": "way\/228677761", "highway": "unclassified", "oneway": "yes" }, "geometry": { "type": "LineString", "coordinates": [ [ 100.610031, 14.0667934 ], [ 100.6100321, 14.0668351 ] ] } },
{ "type": "Feature", "id": "way\/228677762", "properties": { "@id": "way\/228677762", "highway": "unclassified", "oneway": "yes" }, "geometry": { "type": "LineString", "coordinates": [ [ 100.61012, 14.0665869 ], [ 100.6101194, 14.0665361 ], [ 100.610118, 14.0664268 ], [ 100.610108, 14.0660955 ], [ 100.610093, 14.0654883 ], [ 100.6100892, 14.0653344 ] ] } },
{ "type": "Feature", "id": "way\/228680447", "properties": { "@id": "way\/228680447", "highway": "residential", "lanes": "4", "name": "ถนนตลาดวิชา", "name:en": "Thanon Talad Vicha" }, "geometry": { "type": "LineString", "coordinates": [ [ 100.6016339, 14.0752201 ], [ 100.6016378, 14.0749481 ] ] } },
{ "type": "Feature", "id": "way\/228680448", "properties": { "@id": "way\/228680448", "highway": "residential", "lanes": "4", "name": "ถนนตลาดวิชา", "name:en": "Thanon Talad Vicha", "bridge": "yes", "layer": "1" }, "geometry": { "type": "LineString", "coordinates": [ [ 100.6016274, 14.0754304 ], [ 100.6016339, 14.0752201 ] ] } },
{ "type": "Feature", "id": "way\/228682150", "properties": { "@id": "way\/228682150", "highway": "residential" }, "geometry": { "type": "LineString", "coordinates": [ [ 100.600493, 14.0761355 ], [ 100.6004889, 14.076034 ] ] } },
{ "type": "Feature", "id": "way\/228682151", "properties": { "@id": "way\/228682151", "highway": "unclassified", "lanes": "2", "name": "ถนนยูงทอง", "oneway": "yes", "name:en": "Thanon Yoongthong" }, "geometry": { "type": "LineString", "coordinates": [ [ 100.5978777, 14.076216 ], [ 100.5977393, 14.076214 ], [ 100.5966577, 14.0762713 ] ] } },
{ "type": "Feature", "id": "way\/228683671", "properties": { "@id": "way\/228683671", "highway": "service", "service": "parking_aisle" }, "geometry": null },
{ "type": "Feature", "id": "way\/228683672", "properties": { "@id": "way\/228683672", "highway": "service", "service": "parking_aisle" }, "geometry": null },
{ "type": "Feature", "id": "way\/228685385", "properties": { "@id": "way\/228685385", "highway": "service" }, "geometry": null },
{ "type": "Feature", "id": "way\/228685386", "properties": { "@id": "way\/228685386", "highway": "service", "oneway": "yes" }, "geometry": null },
{ "type": "Feature", "id": "way\/228685387", "properties": { "@id": "way\/228685387", "highway": "service" }, "geometry": null },
{ "type": "Feature", "id": "way\/228685388", "properties": { "@id": "way\/228685388", "highway": "service", "oneway": "yes", "service": "parking_aisle" }, "geometry": null },
{ "type": "Feature", "id": "way\/228685389", "properties": { "@id": "way\/228685389", "highway": "service", "service": "parking_aisle" }, "geometry": null },
{ "type": "Feature", "id": "way\/228685390", "properties": { "@id": "way\/228685390", "highway": "service", "oneway": "yes", "service": "parking_aisle" }, "geometry": null },
{ "type": "Feature", "id": "way\/228686472", "properties": { "@id": "way\/228686472", "highway": "service" }, "geometry": null },
{ "type": "Feature", "id": "way\/228686473", "properties": { "@id": "way\/228686473", "highway": "service" }, "geometry": null },
{ "type": "Feature", "id": "way\/228686475", "properties": { "@id": "way\/228686475", "highway": "service", "service": "parking_aisle" }, "geometry": null },
{ "type": "Feature", "id": "way\/228686477", "properties": { "@id": "way\/228686477", "highway": "service" }, "geometry": null },
{ "type": "Feature", "id": "way\/228686479", "properties": { "@id": "way\/228686479", "highway": "service", "service": "parking_aisle" }, "geometry": null },
{ "type": "Feature", "id": "way\/228686480", "properties": { "@id": "way\/228686480", "highway": "service", "service": "parking_aisle" }, "geometry": null },
{ "type": "Feature", "id": "way\/228686481", "properties": { "@id": "way\/228686481", "highway": "service", "service": "parking_aisle" }, "geometry": null },
{ "type": "Feature", "id": "way\/228686483", "properties": { "@id": "way\/228686483", "highway": "service" }, "geometry": null },
{ "type": "Feature", "id": "way\/228686485", "properties": { "@id": "way\/228686485", "highway": "service", "service": "parking_aisle" }, "geometry": null },
{ "type": "Feature", "id": "way\/228686487", "properties": { "@id": "way\/228686487", "highway": "service", "service": "parking_aisle" }, "geometry": null },
{ "type": "Feature", "id": "way\/228686488", "properties": { "@id": "way\/228686488", "highway": "service", "service": "parking_aisle" }, "geometry": null },
{ "type": "Feature", "id": "way\/228686489", "properties": { "@id": "way\/228686489", "highway": "service" }, "geometry": null },
{ "type": "Feature", "id": "way\/228686490", "properties": { "@id": "way\/228686490", "highway": "service", "oneway": "yes" }, "geometry": null },
{ "type": "Feature", "id": "way\/228692832", "properties": { "@id": "way\/228692832", "highway": "service", "bridge": "yes", "layer": "1" }, "geometry": { "type": "LineString", "coordinates": [ [ 100.6137256, 14.0702118 ], [ 100.6137236, 14.0701214 ] ] } },
{ "type": "Feature", "id": "way\/228692834", "properties": { "@id": "way\/228692834", "highway": "service" }, "geometry": null },
{ "type": "Feature", "id": "way\/228692836", "properties": { "@id": "way\/228692836", "highway": "service", "bridge": "yes", "layer": "1" }, "geometry": null },
{ "type": "Feature", "id": "way\/228692838", "properties": { "@id": "way\/228692838", "highway": "service" }, "geometry": null },
{ "type": "Feature", "id": "way\/228692839", "properties": { "@id": "way\/228692839", "highway": "service" }, "geometry": null },
{ "type": "Feature", "id": "way\/228692841", "properties": { "@id": "way\/228692841", "highway": "service" }, "geometry": { "type": "LineString", "coordinates": [ [ 100.6137236, 14.0701214 ], [ 100.6137235, 14.0701028 ], [ 100.6137192, 14.0698487 ], [ 100.6137428, 14.0695086 ], [ 100.613761, 14.0691877 ] ] } },
{ "type": "Feature", "id": "way\/228696087", "properties": { "@id": "way\/228696087", "highway": "residential", "lanes": "2", "name": "ถนนทิวสน", "name:en": "Thanon Tew Son" }, "geometry": null },
{ "type": "Feature", "id": "way\/228697494", "properties": { "@id": "way\/228697494", "highway": "service", "service": "parking_aisle" }, "geometry": null },
{ "type": "Feature", "id": "way\/228697495", "properties": { "@id": "way\/228697495", "highway": "service", "service": "parking_aisle" }, "geometry": null },
{ "type": "Feature", "id": "way\/228697496", "properties": { "@id": "way\/228697496", "highway": "service", "service": "parking_aisle" }, "geometry": null },
{ "type": "Feature", "id": "way\/228697497", "properties": { "@id": "way\/228697497", "highway": "service", "service": "parking_aisle" }, "geometry": null },
{ "type": "Feature", "id": "way\/228697498", "properties": { "@id": "way\/228697498", "highway": "service", "service": "parking_aisle" }, "geometry": null },
{ "type": "Feature", "id": "way\/228697499", "properties": { "@id": "way\/228697499", "highway": "service", "service": "parking_aisle" }, "geometry": null },
{ "type": "Feature", "id": "way\/228699565", "properties": { "@id": "way\/228699565", "highway": "service", "oneway": "yes", "service": "parking_aisle" }, "geometry": null },
{ "type": "Feature", "id": "way\/228699566", "properties": { "@id": "way\/228699566", "highway": "service", "oneway": "yes", "service": "parking_aisle" }, "geometry": { "type": "LineString", "coordinates": [ [ 100.6168511, 14.0727916 ], [ 100.6163265, 14.0727891 ] ] } },
{ "type": "Feature", "id": "way\/228699568", "properties": { "@id": "way\/228699568", "highway": "service", "oneway": "yes" }, "geometry": null },
{ "type": "Feature", "id": "way\/228699570", "properties": { "@id": "way\/228699570", "highway": "service", "oneway": "yes", "service": "parking_aisle" }, "geometry": { "type": "LineString", "coordinates": [ [ 100.6163282, 14.0732828 ], [ 100.6168563, 14.0732828 ] ] } },
{ "type": "Feature", "id": "way\/228699571", "properties": { "@id": "way\/228699571", "highway": "service", "oneway": "yes", "service": "parking_aisle" }, "geometry": null },
{ "type": "Feature", "id": "way\/228699572", "properties": { "@id": "way\/228699572", "highway": "service", "oneway": "yes", "service": "parking_aisle" }, "geometry": { "type": "LineString", "coordinates": [ [ 100.61633, 14.0735992 ], [ 100.6168589, 14.0736043 ] ] } },
{ "type": "Feature", "id": "way\/228699573", "properties": { "@id": "way\/228699573", "highway": "service", "oneway": "yes", "service": "parking_aisle" }, "geometry": null },
{ "type": "Feature", "id": "way\/228699574", "properties": { "@id": "way\/228699574", "highway": "service", "oneway": "yes", "service": "parking_aisle" }, "geometry": { "type": "LineString", "coordinates": [ [ 100.6163265, 14.0726271 ], [ 100.6168486, 14.072627 ] ] } },
{ "type": "Feature", "id": "way\/228699575", "properties": { "@id": "way\/228699575", "highway": "service", "oneway": "yes", "service": "parking_aisle" }, "geometry": { "type": "LineString", "coordinates": [ [ 100.6163273, 14.0731182 ], [ 100.6168549, 14.0731131 ] ] } },
{ "type": "Feature", "id": "way\/228699576", "properties": { "@id": "way\/228699576", "highway": "service", "oneway": "yes", "service": "parking_aisle" }, "geometry": { "type": "LineString", "coordinates": [ [ 100.6168576, 14.0734448 ], [ 100.6163291, 14.0734448 ] ] } },
{ "type": "Feature", "id": "way\/228699577", "properties": { "@id": "way\/228699577", "highway": "service", "oneway": "yes", "service": "parking_aisle" }, "geometry": null },
{ "type": "Feature", "id": "way\/228699579", "properties": { "@id": "way\/228699579", "highway": "service", "oneway": "yes", "service": "parking_aisle" }, "geometry": { "type": "LineString", "coordinates": [ [ 100.6163309, 14.0737638 ], [ 100.6168603, 14.0737663 ] ] } },
{ "type": "Feature", "id": "way\/228699581", "properties": { "@id": "way\/228699581", "highway": "service", "oneway": "yes", "service": "parking_aisle" }, "geometry": null },
{ "type": "Feature", "id": "way\/228699582", "properties": { "@id": "way\/228699582", "highway": "service", "oneway": "yes", "service": "parking_aisle" }, "geometry": { "type": "LineString", "coordinates": [ [ 100.6163317, 14.0739182 ], [ 100.6165947, 14.0739195 ], [ 100.6168615, 14.0739208 ], [ 100.6168603, 14.0737663 ], [ 100.6168589, 14.0736043 ], [ 100.6168576, 14.0734448 ], [ 100.6168563, 14.0732828 ], [ 100.6168549, 14.0731131 ], [ 100.6168537, 14.0729613 ], [ 100.6168511, 14.0727916 ], [ 100.6168486, 14.072627 ], [ 100.6168459, 14.0724499 ], [ 100.6163265, 14.0724524 ], [ 100.6163265, 14.0726271 ], [ 100.6163265, 14.0727891 ], [ 100.6163265, 14.0729613 ], [ 100.6163273, 14.0731182 ], [ 100.6163282, 14.0732828 ], [ 100.6163291, 14.0734448 ], [ 100.61633, 14.0735992 ], [ 100.6163309, 14.0737638 ], [ 100.6163317, 14.0739182 ] ] } },
{ "type": "Feature", "id": "way\/228699583", "properties": { "@id": "way\/228699583", "highway": "service", "service": "parking_aisle" }, "geometry": null },
{ "type": "Feature", "id": "way\/228699585", "properties": { "@id": "way\/228699585", "highway": "service", "service": "parking_aisle" }, "geometry": { "type": "LineString", "coordinates": [ [ 100.616187, 14.0729636 ], [ 100.6163265, 14.0729613 ] ] } },
{ "type": "Feature", "id": "way\/228699586", "properties": { "@id": "way\/228699586", "highway": "service", "service": "parking_aisle" }, "geometry": null },
{ "type": "Feature", "id": "way\/228699587", "properties": { "@id": "way\/228699587", "highway": "service", "service": "parking_aisle" }, "geometry": null },
{ "type": "Feature", "id": "way\/228700821", "properties": { "@id": "way\/228700821", "highway": "service", "service": "parking_aisle" }, "geometry": null },
{ "type": "Feature", "id": "way\/228700823", "properties": { "@id": "way\/228700823", "highway": "service", "service": "parking_aisle" }, "geometry": null },
{ "type": "Feature", "id": "way\/228700824", "properties": { "@id": "way\/228700824", "highway": "service", "service": "parking_aisle" }, "geometry": null },
{ "type": "Feature", "id": "way\/228700826", "properties": { "@id": "way\/228700826", "highway": "service", "service": "parking_aisle" }, "geometry": null },
{ "type": "Feature", "id": "way\/228700827", "properties": { "@id": "way\/228700827", "highway": "service", "service": "parking_aisle" }, "geometry": null },
{ "type": "Feature", "id": "way\/228700828", "properties": { "@id": "way\/228700828", "highway": "service", "service": "parking_aisle" }, "geometry": null },
{ "type": "Feature", "id": "way\/228700830", "properties": { "@id": "way\/228700830", "highway": "service", "service": "parking_aisle" }, "geometry": null },
{ "type": "Feature", "id": "way\/228700834", "properties": { "@id": "way\/228700834", "highway": "service", "oneway": "yes" }, "geometry": null },
{ "type": "Feature", "id": "way\/228700895", "properties": { "@id": "way\/228700895", "highway": "service", "service": "parking_aisle" }, "geometry": null },
{ "type": "Feature", "id": "way\/228700896", "properties": { "@id": "way\/228700896", "highway": "service", "service": "parking_aisle" }, "geometry": null },
{ "type": "Feature", "id": "way\/228704625", "properties": { "@id": "way\/228704625", "highway": "service" }, "geometry": null },
{ "type": "Feature", "id": "way\/228704626", "properties": { "@id": "way\/228704626", "highway": "service", "oneway": "yes" }, "geometry": null },
{ "type": "Feature", "id": "way\/228704628", "properties": { "@id": "way\/228704628", "highway": "service", "oneway": "yes" }, "geometry": null },
{ "type": "Feature", "id": "way\/228704629", "properties": { "@id": "way\/228704629", "highway": "service", "oneway": "yes" }, "geometry": null },
{ "type": "Feature", "id": "way\/228704630", "properties": { "@id": "way\/228704630", "highway": "service", "oneway": "yes", "tunnel": "building_passage" }, "geometry": null },
{ "type": "Feature", "id": "way\/228704631", "properties": { "@id": "way\/228704631", "highway": "service" }, "geometry": null },
{ "type": "Feature", "id": "way\/228713409", "properties": { "@id": "way\/228713409", "highway": "service", "lanes": "2", "name": "ถนนศรีธรรมศาสตร์", "oneway": "no", "name:en": "Thanon Sri Thammasat" }, "geometry": { "type": "LineString", "coordinates": [ [ 100.6050922, 14.0661458 ], [ 100.6050579, 14.0661437 ], [ 100.6050258, 14.0661423 ] ] } },
{ "type": "Feature", "id": "way\/228713410", "properties": { "@id": "way\/228713410", "highway": "residential", "lanes": "1", "name": "ถนนเอเซี่ยนเกมส์", "oneway": "yes", "name:en": "Thanon Asian Games" }, "geometry": { "type": "LineString", "coordinates": [ [ 100.5989097, 14.0668179 ], [ 100.598962, 14.0668095 ], [ 100.5991269, 14.0666483 ], [ 100.5991838, 14.0665484 ], [ 100.5992317, 14.0664415 ], [ 100.5992376, 14.0663825 ], [ 100.5992426, 14.0662579 ] ] } },
{ "type": "Feature", "id": "way\/228713412", "properties": { "@id": "way\/228713412", "highway": "residential", "lanes": "2", "name": "ถนนเอเซี่ยนเกมส์", "oneway": "yes", "name:en": "Thanon Asian Games" }, "geometry": { "type": "LineString", "coordinates": [ [ 100.5991687, 14.0657065 ], [ 100.5991668, 14.0659051 ], [ 100.5991687, 14.0659697 ], [ 100.5991722, 14.0662567 ] ] } },
{ "type": "Feature", "id": "way\/228714358", "properties": { "@id": "way\/228714358", "highway": "service", "service": "parking_aisle" }, "geometry": null },
{ "type": "Feature", "id": "way\/228714360", "properties": { "@id": "way\/228714360", "highway": "service", "service": "parking_aisle" }, "geometry": null },
{ "type": "Feature", "id": "way\/228714361", "properties": { "@id": "way\/228714361", "highway": "service", "service": "parking_aisle" }, "geometry": null },
{ "type": "Feature", "id": "way\/228714363", "properties": { "@id": "way\/228714363", "highway": "service", "service": "parking_aisle" }, "geometry": null },
{ "type": "Feature", "id": "way\/228788193", "properties": { "@id": "way\/228788193", "highway": "unclassified", "lanes": "4", "name": "ถนนสัญญา ธรรมศักดิ์", "oneway": "no", "name:en": "Thanon Sanja Dharmasakti" }, "geometry": { "type": "LineString", "coordinates": [ [ 100.6017203, 14.0674912 ], [ 100.6018139, 14.0674823 ], [ 100.6027262, 14.0674801 ], [ 100.6033773, 14.067473 ], [ 100.6034252, 14.0674725 ], [ 100.6035662, 14.0674739 ], [ 100.604874, 14.0674574 ], [ 100.6049522, 14.0674564 ], [ 100.6051253, 14.0674543 ], [ 100.6052188, 14.0674554 ] ] } },
{ "type": "Feature", "id": "way\/228788194", "properties": { "@id": "way\/228788194", "highway": "unclassified", "lanes": "2", "name": "ถนนสัญญา ธรรมศักดิ์", "oneway": "no", "name:en": "Thanon Sanja Dharmasakti" }, "geometry": { "type": "LineString", "coordinates": [ [ 100.6052188, 14.0674554 ], [ 100.6054132, 14.0674566 ], [ 100.605637, 14.0674512 ], [ 100.6060883, 14.0674402 ], [ 100.6061931, 14.0674377 ], [ 100.6062778, 14.0674356 ], [ 100.6064235, 14.0674331 ], [ 100.6071846, 14.0674355 ], [ 100.6074766, 14.0674283 ], [ 100.608079, 14.0674223 ], [ 100.6084665, 14.0674184 ], [ 100.6087219, 14.0674158 ], [ 100.6088778, 14.0674203 ], [ 100.6090029, 14.0674164 ], [ 100.6096956, 14.0674112 ], [ 100.6099429, 14.0674049 ] ] } },
{ "type": "Feature", "id": "way\/229044919", "properties": { "@id": "way\/229044919", "highway": "residential", "lanes": "2", "name": "ถนนเป็นสุข", "name:en": "Thanon Pen Suk" }, "geometry": null },
{ "type": "Feature", "id": "way\/229044920", "properties": { "@id": "way\/229044920", "highway": "residential", "lanes": "2", "name": "ถนนร่มเย็น", "name:en": "Thanon Rom Yen" }, "geometry": null },
{ "type": "Feature", "id": "way\/229044921", "properties": { "@id": "way\/229044921", "highway": "residential", "name": "ถนนเสรีภาพ", "name:en": "Thanon Seriparp" }, "geometry": null },
{ "type": "Feature", "id": "way\/229044922", "properties": { "@id": "way\/229044922", "highway": "residential" }, "geometry": null },
{ "type": "Feature", "id": "way\/229044923", "properties": { "@id": "way\/229044923", "highway": "service" }, "geometry": null },
{ "type": "Feature", "id": "way\/229201295", "properties": { "@id": "way\/229201295", "highway": "residential", "lanes": "1", "name": "ถนนเอเซี่ยนเกมส์", "oneway": "yes", "name:en": "Thanon Asian Games" }, "geometry": { "type": "LineString", "coordinates": [ [ 100.5991722, 14.0662567 ], [ 100.5991681, 14.0663738 ], [ 100.5991599, 14.0664491 ], [ 100.5991211, 14.0665374 ], [ 100.5990678, 14.0666222 ], [ 100.5989213, 14.0667773 ], [ 100.5989097, 14.0668179 ] ] } },
{ "type": "Feature", "id": "way\/229201296", "properties": { "@id": "way\/229201296", "highway": "residential", "lanes": "2", "name": "ถนนเอเซี่ยนเกมส์", "oneway": "no", "name:en": "Thanon Asian Games" }, "geometry": { "type": "LineString", "coordinates": [ [ 100.5979304, 14.0673174 ], [ 100.5979594, 14.0672885 ], [ 100.5981326, 14.0671156 ], [ 100.5983639, 14.0669602 ], [ 100.5984095, 14.0669296 ], [ 100.5987318, 14.0668322 ], [ 100.5989097, 14.0668179 ] ] } },
{ "type": "Feature", "id": "way\/229201297", "properties": { "@id": "way\/229201297", "highway": "residential", "lanes": "1" }, "geometry": { "type": "LineString", "coordinates": [ [ 100.5990948, 14.0691799 ], [ 100.5992849, 14.0691 ], [ 100.5994792, 14.0689774 ], [ 100.5996571, 14.0688207 ], [ 100.5997413, 14.0686913 ], [ 100.5997694, 14.0685846 ] ] } },
{ "type": "Feature", "id": "way\/229201299", "properties": { "@id": "way\/229201299", "highway": "steps" }, "geometry": null },
{ "type": "Feature", "id": "way\/229201303", "properties": { "@id": "way\/229201303", "highway": "service", "service": "parking_aisle" }, "geometry": null },
{ "type": "Feature", "id": "way\/229203949", "properties": { "@id": "way\/229203949", "highway": "service", "lanes": "2", "name": "ถนนศรีธรรมศาสตร์", "oneway": "no", "name:en": "Thanon Sri Thammasat" }, "geometry": { "type": "LineString", "coordinates": [ [ 100.6048422, 14.066142 ], [ 100.6047492, 14.066142 ], [ 100.6045363, 14.0661416 ], [ 100.6045384, 14.0658191 ], [ 100.6042468, 14.065745 ], [ 100.6041053, 14.0657448 ], [ 100.6028543, 14.0657426 ], [ 100.6012079, 14.0659538 ], [ 100.6007927, 14.0659617 ], [ 100.600545, 14.0659632 ], [ 100.5992482, 14.0659712 ], [ 100.5991687, 14.0659697 ] ] } },
{ "type": "Feature", "id": "way\/229203950", "properties": { "@id": "way\/229203950", "highway": "service", "lanes": "2", "name": "ถนนศรีธรรมศาสตร์", "oneway": "no", "name:en": "Thanon Sri Thammasat", "bridge": "yes", "layer": "1" }, "geometry": { "type": "LineString", "coordinates": [ [ 100.6050258, 14.0661423 ], [ 100.6048422, 14.066142 ] ] } },
{ "type": "Feature", "id": "way\/229203951", "properties": { "@id": "way\/229203951", "highway": "service", "service": "parking_aisle" }, "geometry": null },
{ "type": "Feature", "id": "way\/229301230", "properties": { "@id": "way\/229301230", "highway": "steps", "foot": "designated" }, "geometry": null },
{ "type": "Feature", "id": "way\/229301231", "properties": { "@id": "way\/229301231", "highway": "service", "service": "parking_aisle" }, "geometry": null },
{ "type": "Feature", "id": "way\/229301232", "properties": { "@id": "way\/229301232", "highway": "steps", "foot": "designated" }, "geometry": null },
{ "type": "Feature", "id": "way\/229301234", "properties": { "@id": "way\/229301234", "highway": "service", "service": "parking_aisle" }, "geometry": null },
{ "type": "Feature", "id": "way\/229301237", "properties": { "@id": "way\/229301237", "highway": "steps", "foot": "designated" }, "geometry": null },
{ "type": "Feature", "id": "way\/229301238", "properties": { "@id": "way\/229301238", "highway": "service", "service": "parking_aisle" }, "geometry": null },
{ "type": "Feature", "id": "way\/229301240", "properties": { "@id": "way\/229301240", "highway": "service", "service": "parking_aisle" }, "geometry": null },
{ "type": "Feature", "id": "way\/229305234", "properties": { "@id": "way\/229305234", "highway": "service" }, "geometry": null },
{ "type": "Feature", "id": "way\/229305235", "properties": { "@id": "way\/229305235", "highway": "service", "service": "parking_aisle" }, "geometry": null },
{ "type": "Feature", "id": "way\/229305236", "properties": { "@id": "way\/229305236", "highway": "service", "service": "parking_aisle" }, "geometry": null },
{ "type": "Feature", "id": "way\/229305241", "properties": { "@id": "way\/229305241", "highway": "service", "service": "parking_aisle" }, "geometry": null },
{ "type": "Feature", "id": "way\/229305244", "properties": { "@id": "way\/229305244", "highway": "service", "oneway": "yes", "service": "parking_aisle" }, "geometry": null },
{ "type": "Feature", "id": "way\/229305245", "properties": { "@id": "way\/229305245", "highway": "service", "oneway": "yes", "service": "parking_aisle" }, "geometry": null },
{ "type": "Feature", "id": "way\/229359323", "properties": { "@id": "way\/229359323", "highway": "service" }, "geometry": null },
{ "type": "Feature", "id": "way\/229359324", "properties": { "@id": "way\/229359324", "highway": "service", "oneway": "yes" }, "geometry": null },
{ "type": "Feature", "id": "way\/229361076", "properties": { "@id": "way\/229361076", "highway": "service", "service": "parking_aisle" }, "geometry": null },
{ "type": "Feature", "id": "way\/229361084", "properties": { "@id": "way\/229361084", "highway": "service" }, "geometry": null },
{ "type": "Feature", "id": "way\/229361575", "properties": { "@id": "way\/229361575", "highway": "service", "oneway": "yes" }, "geometry": null },
{ "type": "Feature", "id": "way\/229364534", "properties": { "@id": "way\/229364534", "highway": "service", "bridge": "yes", "layer": "1" }, "geometry": null },
{ "type": "Feature", "id": "way\/229364547", "properties": { "@id": "way\/229364547", "highway": "service" }, "geometry": null },
{ "type": "Feature", "id": "way\/229364548", "properties": { "@id": "way\/229364548", "highway": "service", "service": "parking_aisle" }, "geometry": null },
{ "type": "Feature", "id": "way\/229364550", "properties": { "@id": "way\/229364550", "highway": "service", "service": "parking_aisle" }, "geometry": null },
{ "type": "Feature", "id": "way\/229365673", "properties": { "@id": "way\/229365673", "highway": "residential" }, "geometry": null },
{ "type": "Feature", "id": "way\/229365682", "properties": { "@id": "way\/229365682", "highway": "service" }, "geometry": null },
{ "type": "Feature", "id": "way\/229365707", "properties": { "@id": "way\/229365707", "highway": "residential" }, "geometry": null },
{ "type": "Feature", "id": "way\/229365712", "properties": { "@id": "way\/229365712", "highway": "residential" }, "geometry": null },
{ "type": "Feature", "id": "way\/229366784", "properties": { "@id": "way\/229366784", "highway": "unclassified" }, "geometry": { "type": "LineString", "coordinates": [ [ 100.5957206, 14.076595 ], [ 100.5956649, 14.0765079 ] ] } },
{ "type": "Feature", "id": "way\/229366793", "properties": { "@id": "way\/229366793", "highway": "service", "service": "parking_aisle" }, "geometry": null },
{ "type": "Feature", "id": "way\/229366801", "properties": { "@id": "way\/229366801", "highway": "service", "oneway": "yes" }, "geometry": null },
{ "type": "Feature", "id": "way\/229367561", "properties": { "@id": "way\/229367561", "highway": "service", "oneway": "yes" }, "geometry": null },
{ "type": "Feature", "id": "way\/229367684", "properties": { "@id": "way\/229367684", "highway": "unclassified", "lanes": "2", "name": "ถนนยูงทอง", "oneway": "yes", "name:en": "Thanon Yoongthong" }, "geometry": { "type": "LineString", "coordinates": [ [ 100.5948669, 14.0779708 ], [ 100.594997, 14.0779896 ], [ 100.5950924, 14.0779222 ], [ 100.5951844, 14.0778225 ], [ 100.595218, 14.077763 ], [ 100.595252, 14.0776553 ], [ 100.595249, 14.0774906 ], [ 100.5951964, 14.0773979 ], [ 100.5951443, 14.0773018 ], [ 100.5951319, 14.0772597 ] ] } },
{ "type": "Feature", "id": "way\/229367685", "properties": { "@id": "way\/229367685", "highway": "unclassified", "lanes": "2", "name": "ถนนยูงทอง", "oneway": "yes", "name:en": "Thanon Yoongthong" }, "geometry": { "type": "LineString", "coordinates": [ [ 100.5950374, 14.077257 ], [ 100.5949374, 14.0772848 ], [ 100.5948394, 14.0773353 ], [ 100.5947699, 14.0774036 ], [ 100.5947408, 14.0774397 ], [ 100.5947054, 14.0774835 ], [ 100.5946653, 14.0775704 ], [ 100.5946465, 14.0776502 ], [ 100.5946483, 14.0777391 ], [ 100.5946795, 14.077824 ], [ 100.594715, 14.0778814 ], [ 100.59476, 14.077932 ] ] } },
{ "type": "Feature", "id": "way\/229367872", "properties": { "@id": "way\/229367872", "highway": "residential", "lanes": "2", "name": "ถนนทิวสน", "name:en": "Thanon Tew Son" }, "geometry": null },
{ "type": "Feature", "id": "way\/233340995", "properties": { "@id": "way\/233340995", "highway": "steps", "foot": "designated" }, "geometry": null },
{ "type": "Feature", "id": "way\/233340996", "properties": { "@id": "way\/233340996", "highway": "residential" }, "geometry": null },
{ "type": "Feature", "id": "way\/233340997", "properties": { "@id": "way\/233340997", "highway": "residential" }, "geometry": null },
{ "type": "Feature", "id": "way\/233340998", "properties": { "@id": "way\/233340998", "highway": "steps", "foot": "designated" }, "geometry": null },
{ "type": "Feature", "id": "way\/233340999", "properties": { "@id": "way\/233340999", "highway": "service", "service": "parking_aisle" }, "geometry": null },
{ "type": "Feature", "id": "way\/233341000", "properties": { "@id": "way\/233341000", "highway": "steps", "foot": "designated" }, "geometry": null },
{ "type": "Feature", "id": "way\/233341001", "properties": { "@id": "way\/233341001", "highway": "service", "service": "parking_aisle" }, "geometry": null },
{ "type": "Feature", "id": "way\/233341002", "properties": { "@id": "way\/233341002", "highway": "residential" }, "geometry": null },
{ "type": "Feature", "id": "way\/233341003", "properties": { "@id": "way\/233341003", "highway": "residential" }, "geometry": null },
{ "type": "Feature", "id": "way\/233341004", "properties": { "@id": "way\/233341004", "highway": "service", "service": "parking_aisle" }, "geometry": null },
{ "type": "Feature", "id": "way\/233341005", "properties": { "@id": "way\/233341005", "highway": "residential" }, "geometry": null },
{ "type": "Feature", "id": "way\/233341006", "properties": { "@id": "way\/233341006", "highway": "service", "service": "parking_aisle" }, "geometry": null },
{ "type": "Feature", "id": "way\/233341007", "properties": { "@id": "way\/233341007", "highway": "service" }, "geometry": null },
{ "type": "Feature", "id": "way\/233341008", "properties": { "@id": "way\/233341008", "highway": "steps", "foot": "designated" }, "geometry": null },
{ "type": "Feature", "id": "way\/233341009", "properties": { "@id": "way\/233341009", "highway": "service", "service": "parking_aisle" }, "geometry": null },
{ "type": "Feature", "id": "way\/233341010", "properties": { "@id": "way\/233341010", "highway": "service" }, "geometry": null },
{ "type": "Feature", "id": "way\/233341011", "properties": { "@id": "way\/233341011", "highway": "service", "service": "parking_aisle" }, "geometry": null },
{ "type": "Feature", "id": "way\/233341013", "properties": { "@id": "way\/233341013", "highway": "service" }, "geometry": null },
{ "type": "Feature", "id": "way\/233341014", "properties": { "@id": "way\/233341014", "highway": "residential" }, "geometry": null },
{ "type": "Feature", "id": "way\/233341015", "properties": { "@id": "way\/233341015", "highway": "service", "service": "parking_aisle" }, "geometry": null },
{ "type": "Feature", "id": "way\/233341016", "properties": { "@id": "way\/233341016", "highway": "service", "service": "parking_aisle" }, "geometry": null },
{ "type": "Feature", "id": "way\/233341017", "properties": { "@id": "way\/233341017", "highway": "service", "service": "parking_aisle" }, "geometry": null },
{ "type": "Feature", "id": "way\/233341018", "properties": { "@id": "way\/233341018", "highway": "service", "service": "parking_aisle" }, "geometry": null },
{ "type": "Feature", "id": "way\/233341019", "properties": { "@id": "way\/233341019", "highway": "residential" }, "geometry": null },
{ "type": "Feature", "id": "way\/233341020", "properties": { "@id": "way\/233341020", "highway": "residential", "oneway": "yes", "junction": "roundabout" }, "geometry": null },
{ "type": "Feature", "id": "way\/233341021", "properties": { "@id": "way\/233341021", "highway": "service", "service": "parking_aisle" }, "geometry": null },
{ "type": "Feature", "id": "way\/233395006", "properties": { "@id": "way\/233395006", "highway": "service" }, "geometry": null },
{ "type": "Feature", "id": "way\/233395007", "properties": { "@id": "way\/233395007", "highway": "service", "service": "parking_aisle" }, "geometry": null },
{ "type": "Feature", "id": "way\/233395008", "properties": { "@id": "way\/233395008", "highway": "service", "service": "parking_aisle" }, "geometry": null },
{ "type": "Feature", "id": "way\/233505399", "properties": { "@id": "way\/233505399", "highway": "unclassified", "lanes": "2", "name": "ถนนป๋วย อึ้งภากรณ์", "oneway": "no", "name:en": "Thanon Puey Ungpakorn" }, "geometry": { "type": "LineString", "coordinates": [ [ 100.6167521, 14.0702841 ], [ 100.61616, 14.0702773 ], [ 100.6137264, 14.0702684 ], [ 100.6131899, 14.0702667 ], [ 100.6100243, 14.0702565 ] ] } },
{ "type": "Feature", "id": "way\/233505405", "properties": { "@id": "way\/233505405", "highway": "service", "service": "parking_aisle" }, "geometry": null },
{ "type": "Feature", "id": "way\/233505406", "properties": { "@id": "way\/233505406", "highway": "service", "service": "parking_aisle" }, "geometry": null },
{ "type": "Feature", "id": "way\/233505410", "properties": { "@id": "way\/233505410", "highway": "service", "service": "parking_aisle" }, "geometry": null },
{ "type": "Feature", "id": "way\/233505411", "properties": { "@id": "way\/233505411", "highway": "service", "service": "driveway" }, "geometry": null },
{ "type": "Feature", "id": "way\/233505416", "properties": { "@id": "way\/233505416", "highway": "service", "oneway": "yes", "service": "driveway" }, "geometry": null },
{ "type": "Feature", "id": "way\/233525660", "properties": { "@id": "way\/233525660", "highway": "service", "service": "parking_aisle" }, "geometry": null },
{ "type": "Feature", "id": "way\/233529878", "properties": { "@id": "way\/233529878", "highway": "unclassified", "lanes": "2", "bridge": "yes", "layer": "1" }, "geometry": { "type": "LineString", "coordinates": [ [ 100.6074883, 14.0677286 ], [ 100.6074858, 14.0676321 ] ] } },
{ "type": "Feature", "id": "way\/233529879", "properties": { "@id": "way\/233529879", "highway": "service", "bridge": "yes", "layer": "1", "service": "parking_aisle" }, "geometry": null },
{ "type": "Feature", "id": "way\/233529881", "properties": { "@id": "way\/233529881", "highway": "unclassified", "lanes": "2" }, "geometry": { "type": "LineString", "coordinates": [ [ 100.6074858, 14.0676321 ], [ 100.6074766, 14.0674283 ] ] } },
{ "type": "Feature", "id": "way\/233529882", "properties": { "@id": "way\/233529882", "highway": "service", "service": "parking_aisle" }, "geometry": null },
{ "type": "Feature", "id": "way\/233529885", "properties": { "@id": "way\/233529885", "highway": "unclassified", "lanes": "2", "bridge": "yes", "layer": "1" }, "geometry": null },
{ "type": "Feature", "id": "way\/233529887", "properties": { "@id": "way\/233529887", "highway": "service", "service": "parking_aisle" }, "geometry": null },
{ "type": "Feature", "id": "way\/233529890", "properties": { "@id": "way\/233529890", "highway": "unclassified", "lanes": "2" }, "geometry": null },
{ "type": "Feature", "id": "way\/233529893", "properties": { "@id": "way\/233529893", "highway": "unclassified", "lanes": "2", "bridge": "yes", "layer": "1" }, "geometry": { "type": "LineString", "coordinates": [ [ 100.6062744, 14.0676272 ], [ 100.6062745, 14.0677438 ] ] } },
{ "type": "Feature", "id": "way\/233529895", "properties": { "@id": "way\/233529895", "highway": "steps", "bridge": "yes", "layer": "1" }, "geometry": null },
{ "type": "Feature", "id": "way\/233529898", "properties": { "@id": "way\/233529898", "highway": "unclassified", "lanes": "2" }, "geometry": { "type": "LineString", "coordinates": [ [ 100.6062745, 14.0677438 ], [ 100.6062693, 14.0685245 ] ] } },
{ "type": "Feature", "id": "way\/233529899", "properties": { "@id": "way\/233529899", "highway": "residential" }, "geometry": null },
{ "type": "Feature", "id": "way\/233529900", "properties": { "@id": "way\/233529900", "highway": "service", "service": "parking_aisle" }, "geometry": null },
{ "type": "Feature", "id": "way\/233529901", "properties": { "@id": "way\/233529901", "highway": "unclassified", "lanes": "2", "bridge": "yes", "layer": "1" }, "geometry": null },
{ "type": "Feature", "id": "way\/233529902", "properties": { "@id": "way\/233529902", "highway": "unclassified", "lanes": "2" }, "geometry": null },
{ "type": "Feature", "id": "way\/233536800", "properties": { "@id": "way\/233536800", "highway": "service" }, "geometry": null },
{ "type": "Feature", "id": "way\/233536801", "properties": { "@id": "way\/233536801", "highway": "service", "service": "parking_aisle" }, "geometry": null },
{ "type": "Feature", "id": "way\/233536802", "properties": { "@id": "way\/233536802", "highway": "service", "service": "parking_aisle" }, "geometry": null },
{ "type": "Feature", "id": "way\/233536803", "properties": { "@id": "way\/233536803", "highway": "service", "service": "parking_aisle" }, "geometry": null },
{ "type": "Feature", "id": "way\/233536804", "properties": { "@id": "way\/233536804", "highway": "service", "service": "parking_aisle" }, "geometry": null },
{ "type": "Feature", "id": "way\/233536805", "properties": { "@id": "way\/233536805", "highway": "service", "service": "parking_aisle" }, "geometry": null },
{ "type": "Feature", "id": "way\/233536806", "properties": { "@id": "way\/233536806", "highway": "service", "service": "parking_aisle" }, "geometry": null },
{ "type": "Feature", "id": "way\/233536807", "properties": { "@id": "way\/233536807", "highway": "service", "service": "parking_aisle" }, "geometry": null },
{ "type": "Feature", "id": "way\/233536808", "properties": { "@id": "way\/233536808", "highway": "service" }, "geometry": null },
{ "type": "Feature", "id": "way\/233536809", "properties": { "@id": "way\/233536809", "highway": "service", "service": "parking_aisle" }, "geometry": null },
{ "type": "Feature", "id": "way\/233536810", "properties": { "@id": "way\/233536810", "highway": "service", "service": "parking_aisle" }, "geometry": null },
{ "type": "Feature", "id": "way\/233593718", "properties": { "@id": "way\/233593718", "highway": "service", "surface": "compacted", "tracktype": "grade2" }, "geometry": null },
{ "type": "Feature", "id": "way\/233593719", "properties": { "@id": "way\/233593719", "highway": "service", "service": "parking_aisle" }, "geometry": null },
{ "type": "Feature", "id": "way\/233593722", "properties": { "@id": "way\/233593722", "highway": "service", "service": "parking_aisle" }, "geometry": null },
{ "type": "Feature", "id": "way\/233593723", "properties": { "@id": "way\/233593723", "highway": "service", "service": "parking_aisle" }, "geometry": null },
{ "type": "Feature", "id": "way\/233593724", "properties": { "@id": "way\/233593724", "highway": "service" }, "geometry": null },
{ "type": "Feature", "id": "way\/233593725", "properties": { "@id": "way\/233593725", "highway": "residential", "surface": "compacted", "tracktype": "grade2" }, "geometry": null },
{ "type": "Feature", "id": "way\/233593726", "properties": { "@id": "way\/233593726", "highway": "service", "surface": "compacted", "tracktype": "grade2" }, "geometry": null },
{ "type": "Feature", "id": "way\/233595635", "properties": { "@id": "way\/233595635", "highway": "service", "bridge": "yes", "layer": "1" }, "geometry": null },
{ "type": "Feature", "id": "way\/233595637", "properties": { "@id": "way\/233595637", "highway": "service", "bridge": "yes", "layer": "1" }, "geometry": null },
{ "type": "Feature", "id": "way\/233595639", "properties": { "@id": "way\/233595639", "highway": "service" }, "geometry": null },
{ "type": "Feature", "id": "way\/233595641", "properties": { "@id": "way\/233595641", "highway": "service" }, "geometry": null },
{ "type": "Feature", "id": "way\/233595646", "properties": { "@id": "way\/233595646", "highway": "service", "bridge": "yes", "layer": "1" }, "geometry": null },
{ "type": "Feature", "id": "way\/233595647", "properties": { "@id": "way\/233595647", "highway": "service", "service": "parking_aisle" }, "geometry": null },
{ "type": "Feature", "id": "way\/233595649", "properties": { "@id": "way\/233595649", "highway": "service" }, "geometry": null },
{ "type": "Feature", "id": "way\/233596660", "properties": { "@id": "way\/233596660", "highway": "service", "oneway": "yes" }, "geometry": { "type": "LineString", "coordinates": [ [ 100.6161932, 14.0739906 ], [ 100.6161024, 14.0740096 ], [ 100.6160489, 14.0740564 ], [ 100.6160254, 14.0741147 ], [ 100.6160476, 14.074178 ], [ 100.6161168, 14.0742185 ], [ 100.6161944, 14.0742248 ] ] } },
{ "type": "Feature", "id": "way\/234154884", "properties": { "@id": "way\/234154884", "highway": "service" }, "geometry": null },
{ "type": "Feature", "id": "way\/234432592", "properties": { "@id": "way\/234432592", "highway": "unclassified", "lanes": "2", "name": "ถนนป๋วย อึ้งภากรณ์", "oneway": "no", "name:en": "Thanon Puey Ungpakorn" }, "geometry": { "type": "LineString", "coordinates": [ [ 100.6100243, 14.0702565 ], [ 100.6046001, 14.070253 ], [ 100.6042457, 14.0702513 ] ] } },
{ "type": "Feature", "id": "way\/234432593", "properties": { "@id": "way\/234432593", "highway": "unclassified", "lanes": "2", "name": "ถนนธรรมจักร", "oneway": "yes", "name:en": "Thanon Thammajak", "bridge": "yes", "layer": "1" }, "geometry": null },
{ "type": "Feature", "id": "way\/234432594", "properties": { "@id": "way\/234432594", "highway": "unclassified", "lanes": "2", "name": "ถนนธรรมจักร", "oneway": "no", "name:en": "Thanon Thammajak" }, "geometry": { "type": "LineString", "coordinates": [ [ 100.6161944, 14.0742248 ], [ 100.6161932, 14.0739906 ], [ 100.6161922, 14.07394 ], [ 100.6161912, 14.0736236 ], [ 100.6161921, 14.0732546 ], [ 100.616187, 14.0729636 ], [ 100.61617, 14.0721746 ], [ 100.6161711, 14.0721256 ], [ 100.61616, 14.0702773 ], [ 100.6161561, 14.0696701 ], [ 100.6161513, 14.0694079 ], [ 100.6161524, 14.0693379 ], [ 100.6161574, 14.0692598 ], [ 100.6161479, 14.0687811 ], [ 100.6161409, 14.0685518 ], [ 100.6161408, 14.0685387 ], [ 100.6161382, 14.0683108 ], [ 100.6161373, 14.0682261 ], [ 100.6161354, 14.0680559 ], [ 100.6161339, 14.0679226 ], [ 100.6161328, 14.0678266 ], [ 100.6161302, 14.0675881 ], [ 100.6161219, 14.0668398 ], [ 100.6160451, 14.06677 ] ] } },
{ "type": "Feature", "id": "way\/234432597", "properties": { "@id": "way\/234432597", "highway": "service" }, "geometry": { "type": "LineString", "coordinates": [ [ 100.6163071, 14.0694864 ], [ 100.6161524, 14.0693379 ], [ 100.6156662, 14.0688718 ], [ 100.6156058, 14.0689277 ], [ 100.6154274, 14.0689332 ], [ 100.6153065, 14.0688244 ], [ 100.6153008, 14.0686513 ], [ 100.6154101, 14.0685397 ], [ 100.6155871, 14.0685397 ], [ 100.6157137, 14.0686499 ], [ 100.6157123, 14.0688132 ], [ 100.6156662, 14.0688718 ] ] } },
{ "type": "Feature", "id": "way\/234432604", "properties": { "@id": "way\/234432604", "highway": "steps" }, "geometry": { "type": "LineString", "coordinates": [ [ 100.6156524, 14.0679247 ], [ 100.6156072, 14.0678781 ] ] } },
{ "type": "Feature", "id": "way\/234432609", "properties": { "@id": "way\/234432609", "highway": "service", "oneway": "yes", "service": "parking_aisle" }, "geometry": { "type": "LineString", "coordinates": [ [ 100.6168537, 14.0729613 ], [ 100.6163265, 14.0729613 ] ] } },
{ "type": "Feature", "id": "way\/234432616", "properties": { "@id": "way\/234432616", "highway": "steps" }, "geometry": null },
{ "type": "Feature", "id": "way\/234432619", "properties": { "@id": "way\/234432619", "highway": "steps" }, "geometry": { "type": "LineString", "coordinates": [ [ 100.6146652, 14.0688968 ], [ 100.6146242, 14.0688561 ] ] } },
{ "type": "Feature", "id": "way\/234432624", "properties": { "@id": "way\/234432624", "highway": "service", "oneway": "yes", "service": "parking_aisle" }, "geometry": null },
{ "type": "Feature", "id": "way\/234432632", "properties": { "@id": "way\/234432632", "highway": "service", "oneway": "yes" }, "geometry": null },
{ "type": "Feature", "id": "way\/242045240", "properties": { "@id": "way\/242045240", "highway": "residential", "cutting": "yes" }, "geometry": null },
{ "type": "Feature", "id": "way\/242045242", "properties": { "@id": "way\/242045242", "highway": "residential", "lanes": "2", "oneway": "yes" }, "geometry": null },
{ "type": "Feature", "id": "way\/242048982", "properties": { "@id": "way\/242048982", "highway": "residential", "lanes": "2", "oneway": "yes", "source": "GPS" }, "geometry": null },
{ "type": "Feature", "id": "way\/242048983", "properties": { "@id": "way\/242048983", "highway": "residential", "junction": "roundabout", "foot": "yes", "surface": "concrete", "bicycle": "yes", "horse": "yes", "motor_vehicle": "yes" }, "geometry": null },
{ "type": "Feature", "id": "way\/243124800", "properties": { "@id": "way\/243124800", "highway": "residential", "oneway": "yes" }, "geometry": null },
{ "type": "Feature", "id": "way\/243125471", "properties": { "@id": "way\/243125471", "highway": "residential", "oneway": "yes" }, "geometry": null },
{ "type": "Feature", "id": "way\/245885280", "properties": { "@id": "way\/245885280", "highway": "residential", "oneway": "yes" }, "geometry": null },
{ "type": "Feature", "id": "way\/251473917", "properties": { "@id": "way\/251473917", "highway": "residential" }, "geometry": null },
{ "type": "Feature", "id": "way\/256137592", "properties": { "@id": "way\/256137592", "highway": "residential", "lanes": "2", "oneway": "yes" }, "geometry": null },
{ "type": "Feature", "id": "way\/260092558", "properties": { "@id": "way\/260092558", "highway": "service", "oneway": "yes", "layer": "-1", "service": "driveway" }, "geometry": null },
{ "type": "Feature", "id": "way\/260092559", "properties": { "@id": "way\/260092559", "highway": "residential", "oneway": "yes" }, "geometry": { "type": "LineString", "coordinates": [ [ 100.6016175, 14.0759655 ], [ 100.6015662, 14.0760671 ] ] } },
{ "type": "Feature", "id": "way\/260092560", "properties": { "@id": "way\/260092560", "highway": "residential", "oneway": "yes" }, "geometry": null },
{ "type": "Feature", "id": "way\/260094575", "properties": { "@id": "way\/260094575", "highway": "residential", "lanes": "2", "oneway": "no", "source": "GPS" }, "geometry": null },
{ "type": "Feature", "id": "way\/260094576", "properties": { "@id": "way\/260094576", "highway": "service", "source": "GPS" }, "geometry": null },
{ "type": "Feature", "id": "way\/260103518", "properties": { "@id": "way\/260103518", "highway": "residential", "lanes": "2", "oneway": "yes" }, "geometry": null },
{ "type": "Feature", "id": "way\/260103521", "properties": { "@id": "way\/260103521", "highway": "service", "service": "parking_aisle" }, "geometry": null },
{ "type": "Feature", "id": "way\/260103525", "properties": { "@id": "way\/260103525", "highway": "service", "service": "parking_aisle" }, "geometry": null },
{ "type": "Feature", "id": "way\/260103528", "properties": { "@id": "way\/260103528", "highway": "service", "service": "parking_aisle" }, "geometry": null },
{ "type": "Feature", "id": "way\/260103533", "properties": { "@id": "way\/260103533", "highway": "service", "service": "parking_aisle" }, "geometry": null },
{ "type": "Feature", "id": "way\/260105064", "properties": { "@id": "way\/260105064", "highway": "service", "oneway": "yes", "service": "driveway" }, "geometry": null },
{ "type": "Feature", "id": "way\/260105979", "properties": { "@id": "way\/260105979", "highway": "service", "oneway": "yes", "service": "driveway" }, "geometry": null },
{ "type": "Feature", "id": "way\/292589495", "properties": { "@id": "way\/292589495", "highway": "residential" }, "geometry": null },
{ "type": "Feature", "id": "way\/292589496", "properties": { "@id": "way\/292589496", "highway": "service" }, "geometry": null },
{ "type": "Feature", "id": "way\/292589497", "properties": { "@id": "way\/292589497", "highway": "service" }, "geometry": null },
{ "type": "Feature", "id": "way\/301616113", "properties": { "@id": "way\/301616113", "highway": "service", "name": "Farmmer Road" }, "geometry": null },
{ "type": "Feature", "id": "way\/326176574", "properties": { "@id": "way\/326176574", "highway": "service" }, "geometry": null },
{ "type": "Feature", "id": "way\/366091675", "properties": { "@id": "way\/366091675", "highway": "residential" }, "geometry": null },
{ "type": "Feature", "id": "way\/366146425", "properties": { "@id": "way\/366146425", "highway": "service" }, "geometry": null },
{ "type": "Feature", "id": "way\/366146426", "properties": { "@id": "way\/366146426", "highway": "service" }, "geometry": null },
{ "type": "Feature", "id": "way\/366146428", "properties": { "@id": "way\/366146428", "highway": "service", "service": "parking_aisle" }, "geometry": null },
{ "type": "Feature", "id": "way\/366148038", "properties": { "@id": "way\/366148038", "highway": "residential" }, "geometry": null },
{ "type": "Feature", "id": "way\/366148039", "properties": { "@id": "way\/366148039", "highway": "service", "service": "parking_aisle" }, "geometry": null },
{ "type": "Feature", "id": "way\/366162085", "properties": { "@id": "way\/366162085", "highway": "service", "surface": "asphalt", "motor_vehicle": "no" }, "geometry": null },
{ "type": "Feature", "id": "way\/366186717", "properties": { "@id": "way\/366186717", "highway": "service" }, "geometry": null },
{ "type": "Feature", "id": "way\/366186719", "properties": { "@id": "way\/366186719", "highway": "service" }, "geometry": null },
{ "type": "Feature", "id": "way\/378474719", "properties": { "@id": "way\/378474719", "highway": "unclassified", "lanes": "2", "name": "ถนนตลาดวิชา", "oneway": "no", "name:en": "Thanon Talad Vicha" }, "geometry": { "type": "LineString", "coordinates": [ [ 100.6017203, 14.0674912 ], [ 100.6016871, 14.0675252 ], [ 100.6016696, 14.0675755 ], [ 100.6016641, 14.0679102 ], [ 100.6016634, 14.0680525 ], [ 100.6016641, 14.069073 ], [ 100.6016643, 14.0691864 ], [ 100.6016645, 14.0693137 ], [ 100.6016653, 14.0695159 ], [ 100.6016591, 14.0702306 ], [ 100.6016564, 14.0702957 ], [ 100.6016564, 14.0702987 ], [ 100.6016565, 14.0703504 ], [ 100.6016562, 14.0704111 ], [ 100.6016545, 14.0704688 ] ] } },
{ "type": "Feature", "id": "way\/385957984", "properties": { "@id": "way\/385957984", "highway": "service", "service": "driveway" }, "geometry": null },
{ "type": "Feature", "id": "way\/385957986", "properties": { "@id": "way\/385957986", "highway": "residential" }, "geometry": null },
{ "type": "Feature", "id": "way\/385957988", "properties": { "@id": "way\/385957988", "highway": "residential" }, "geometry": null },
{ "type": "Feature", "id": "way\/385960482", "properties": { "@id": "way\/385960482", "highway": "unclassified", "remarks": "accessible by car" }, "geometry": null },
{ "type": "Feature", "id": "way\/458580935", "properties": { "@id": "way\/458580935", "highway": "residential", "lanes": "1", "oneway": "no" }, "geometry": { "type": "LineString", "coordinates": [ [ 100.5980466, 14.0688354 ], [ 100.5982283, 14.0689641 ], [ 100.5984036, 14.0690853 ], [ 100.5986142, 14.0691639 ], [ 100.5990948, 14.0691799 ] ] } },
{ "type": "Feature", "id": "way\/469393688", "properties": { "@id": "way\/469393688", "highway": "service", "surface": "ground", "bicycle": "yes", "motor_vehicle": "no" }, "geometry": null },
{ "type": "Feature", "id": "way\/469398682", "properties": { "@id": "way\/469398682", "highway": "service", "service": "parking_aisle" }, "geometry": null },
{ "type": "Feature", "id": "way\/477068763", "properties": { "@id": "way\/477068763", "highway": "residential" }, "geometry": null },
{ "type": "Feature", "id": "way\/477388052", "properties": { "@id": "way\/477388052", "highway": "service", "surface": "asphalt", "motor_vehicle": "no" }, "geometry": null },
{ "type": "Feature", "id": "way\/521702049", "properties": { "@id": "way\/521702049", "highway": "residential" }, "geometry": null },
{ "type": "Feature", "id": "way\/544479359", "properties": { "@id": "way\/544479359", "highway": "unclassified", "name": "ถนนพิทักษ์ธรรม", "name:en": "Thanon Pitaktham" }, "geometry": { "type": "LineString", "coordinates": [ [ 100.6099429, 14.0674049 ], [ 100.6099715, 14.0685598 ], [ 100.6099761, 14.0686722 ], [ 100.6100049, 14.0697486 ], [ 100.6100243, 14.0702565 ], [ 100.6100272, 14.0703131 ], [ 100.6100447, 14.0706527 ], [ 100.6100557, 14.0710187 ], [ 100.610059, 14.0710951 ], [ 100.6100628, 14.0711816 ], [ 100.6100679, 14.0713134 ], [ 100.6100691, 14.0713457 ], [ 100.6100945, 14.0720926 ], [ 100.6100967, 14.0721294 ] ] } },
{ "type": "Feature", "id": "way\/544479360", "properties": { "@id": "way\/544479360", "highway": "unclassified", "lanes": "2", "name": "ถนนโดมร่วมใจ", "name:en": "Thanon Dome Ruamjai" }, "geometry": null },
{ "type": "Feature", "id": "way\/544479361", "properties": { "@id": "way\/544479361", "highway": "unclassified", "name": "ถนนพิทักษ์ธรรม", "oneway": "yes", "name:en": "Thanon Pitaktham" }, "geometry": null },
{ "type": "Feature", "id": "way\/574196883", "properties": { "@id": "way\/574196883", "highway": "service", "service": "parking_aisle" }, "geometry": null },
{ "type": "Feature", "id": "way\/574201561", "properties": { "@id": "way\/574201561", "highway": "service" }, "geometry": null },
{ "type": "Feature", "id": "way\/585637737", "properties": { "@id": "way\/585637737", "highway": "service", "oneway": "yes" }, "geometry": { "type": "LineString", "coordinates": [ [ 100.6115306, 14.0721497 ], [ 100.61202, 14.0721582 ] ] } },
{ "type": "Feature", "id": "way\/616836029", "properties": { "@id": "way\/616836029", "highway": "residential" }, "geometry": null },
{ "type": "Feature", "id": "way\/616836031", "properties": { "@id": "way\/616836031", "highway": "service" }, "geometry": null },
{ "type": "Feature", "id": "way\/616836032", "properties": { "@id": "way\/616836032", "highway": "service" }, "geometry": null },
{ "type": "Feature", "id": "way\/616836038", "properties": { "@id": "way\/616836038", "highway": "unclassified", "lanes": "2", "name": "ถนนยูงทอง", "source": "GPS" }, "geometry": null },
{ "type": "Feature", "id": "way\/616836041", "properties": { "@id": "way\/616836041", "highway": "residential" }, "geometry": null },
{ "type": "Feature", "id": "way\/616840823", "properties": { "@id": "way\/616840823", "highway": "service" }, "geometry": null },
{ "type": "Feature", "id": "way\/616840832", "properties": { "@id": "way\/616840832", "highway": "service" }, "geometry": null },
{ "type": "Feature", "id": "way\/616840833", "properties": { "@id": "way\/616840833", "highway": "service" }, "geometry": null },
{ "type": "Feature", "id": "way\/616840834", "properties": { "@id": "way\/616840834", "highway": "service" }, "geometry": null },
{ "type": "Feature", "id": "way\/616840835", "properties": { "@id": "way\/616840835", "highway": "service" }, "geometry": null },
{ "type": "Feature", "id": "way\/616840836", "properties": { "@id": "way\/616840836", "highway": "service" }, "geometry": null },
{ "type": "Feature", "id": "way\/616840837", "properties": { "@id": "way\/616840837", "highway": "service" }, "geometry": null },
{ "type": "Feature", "id": "way\/616840838", "properties": { "@id": "way\/616840838", "highway": "service", "oneway": "yes", "junction": "roundabout" }, "geometry": null },
{ "type": "Feature", "id": "way\/616840839", "properties": { "@id": "way\/616840839", "highway": "service" }, "geometry": null },
{ "type": "Feature", "id": "way\/616840845", "properties": { "@id": "way\/616840845", "highway": "service" }, "geometry": null },
{ "type": "Feature", "id": "way\/616840846", "properties": { "@id": "way\/616840846", "highway": "service" }, "geometry": null },
{ "type": "Feature", "id": "way\/617330708", "properties": { "@id": "way\/617330708", "highway": "residential" }, "geometry": null },
{ "type": "Feature", "id": "way\/617330716", "properties": { "@id": "way\/617330716", "highway": "service" }, "geometry": null },
{ "type": "Feature", "id": "way\/617330718", "properties": { "@id": "way\/617330718", "highway": "residential" }, "geometry": null },
{ "type": "Feature", "id": "way\/617330719", "properties": { "@id": "way\/617330719", "highway": "residential" }, "geometry": null },
{ "type": "Feature", "id": "way\/617330720", "properties": { "@id": "way\/617330720", "highway": "residential" }, "geometry": null },
{ "type": "Feature", "id": "way\/617330721", "properties": { "@id": "way\/617330721", "highway": "residential" }, "geometry": null },
{ "type": "Feature", "id": "way\/617330722", "properties": { "@id": "way\/617330722", "highway": "residential" }, "geometry": null },
{ "type": "Feature", "id": "way\/617330723", "properties": { "@id": "way\/617330723", "highway": "service" }, "geometry": null },
{ "type": "Feature", "id": "way\/617330724", "properties": { "@id": "way\/617330724", "highway": "residential" }, "geometry": null },
{ "type": "Feature", "id": "way\/617330727", "properties": { "@id": "way\/617330727", "highway": "residential" }, "geometry": null },
{ "type": "Feature", "id": "way\/617330729", "properties": { "@id": "way\/617330729", "highway": "residential" }, "geometry": null },
{ "type": "Feature", "id": "way\/617330731", "properties": { "@id": "way\/617330731", "highway": "service" }, "geometry": null },
{ "type": "Feature", "id": "way\/617330732", "properties": { "@id": "way\/617330732", "highway": "residential" }, "geometry": null },
{ "type": "Feature", "id": "way\/617332859", "properties": { "@id": "way\/617332859", "highway": "service" }, "geometry": null },
{ "type": "Feature", "id": "way\/617332860", "properties": { "@id": "way\/617332860", "highway": "residential" }, "geometry": null },
{ "type": "Feature", "id": "way\/617332862", "properties": { "@id": "way\/617332862", "highway": "service" }, "geometry": null },
{ "type": "Feature", "id": "way\/617332863", "properties": { "@id": "way\/617332863", "highway": "service", "oneway": "yes" }, "geometry": null },
{ "type": "Feature", "id": "way\/617332865", "properties": { "@id": "way\/617332865", "highway": "service" }, "geometry": null },
{ "type": "Feature", "id": "way\/617332866", "properties": { "@id": "way\/617332866", "highway": "service" }, "geometry": null },
{ "type": "Feature", "id": "way\/617332867", "properties": { "@id": "way\/617332867", "highway": "residential", "oneway": "yes" }, "geometry": null },
{ "type": "Feature", "id": "way\/617343987", "properties": { "@id": "way\/617343987", "highway": "service" }, "geometry": null },
{ "type": "Feature", "id": "way\/617343988", "properties": { "@id": "way\/617343988", "highway": "service" }, "geometry": null },
{ "type": "Feature", "id": "way\/617343989", "properties": { "@id": "way\/617343989", "highway": "service" }, "geometry": null },
{ "type": "Feature", "id": "way\/617344004", "properties": { "@id": "way\/617344004", "highway": "service" }, "geometry": null },
{ "type": "Feature", "id": "way\/617344006", "properties": { "@id": "way\/617344006", "highway": "service" }, "geometry": null },
{ "type": "Feature", "id": "way\/617350513", "properties": { "@id": "way\/617350513", "highway": "service" }, "geometry": null },
{ "type": "Feature", "id": "way\/617350514", "properties": { "@id": "way\/617350514", "highway": "service", "service": "parking_aisle" }, "geometry": null },
{ "type": "Feature", "id": "way\/617350515", "properties": { "@id": "way\/617350515", "highway": "service", "service": "parking_aisle" }, "geometry": null },
{ "type": "Feature", "id": "way\/617350516", "properties": { "@id": "way\/617350516", "highway": "service", "service": "parking_aisle" }, "geometry": null },
{ "type": "Feature", "id": "way\/617350517", "properties": { "@id": "way\/617350517", "highway": "service", "service": "parking_aisle" }, "geometry": null },
{ "type": "Feature", "id": "way\/617350518", "properties": { "@id": "way\/617350518", "highway": "service", "surface": "compacted", "tracktype": "grade2" }, "geometry": null },
{ "type": "Feature", "id": "way\/617350522", "properties": { "@id": "way\/617350522", "highway": "service" }, "geometry": null },
{ "type": "Feature", "id": "way\/617350523", "properties": { "@id": "way\/617350523", "highway": "service" }, "geometry": null },
{ "type": "Feature", "id": "way\/617350524", "properties": { "@id": "way\/617350524", "highway": "service" }, "geometry": null },
{ "type": "Feature", "id": "way\/617350525", "properties": { "@id": "way\/617350525", "highway": "service" }, "geometry": null },
{ "type": "Feature", "id": "way\/617350526", "properties": { "@id": "way\/617350526", "highway": "service" }, "geometry": null },
{ "type": "Feature", "id": "way\/617350527", "properties": { "@id": "way\/617350527", "highway": "residential" }, "geometry": null },
{ "type": "Feature", "id": "way\/617350528", "properties": { "@id": "way\/617350528", "highway": "unclassified" }, "geometry": null },
{ "type": "Feature", "id": "way\/617350529", "properties": { "@id": "way\/617350529", "highway": "service" }, "geometry": null },
{ "type": "Feature", "id": "way\/617350530", "properties": { "@id": "way\/617350530", "highway": "service" }, "geometry": null },
{ "type": "Feature", "id": "way\/617356191", "properties": { "@id": "way\/617356191", "highway": "service" }, "geometry": null },
{ "type": "Feature", "id": "way\/617356192", "properties": { "@id": "way\/617356192", "highway": "service" }, "geometry": null },
{ "type": "Feature", "id": "way\/617356194", "properties": { "@id": "way\/617356194", "highway": "service" }, "geometry": null },
{ "type": "Feature", "id": "way\/617356196", "properties": { "@id": "way\/617356196", "highway": "service", "oneway": "yes" }, "geometry": null },
{ "type": "Feature", "id": "way\/617356198", "properties": { "@id": "way\/617356198", "highway": "service" }, "geometry": null },
{ "type": "Feature", "id": "way\/617356200", "properties": { "@id": "way\/617356200", "highway": "service" }, "geometry": null },
{ "type": "Feature", "id": "way\/617356202", "properties": { "@id": "way\/617356202", "highway": "service" }, "geometry": null },
{ "type": "Feature", "id": "way\/617356205", "properties": { "@id": "way\/617356205", "highway": "service" }, "geometry": null },
{ "type": "Feature", "id": "way\/617356207", "properties": { "@id": "way\/617356207", "highway": "service", "bridge": "yes", "layer": "1" }, "geometry": null },
{ "type": "Feature", "id": "way\/617356209", "properties": { "@id": "way\/617356209", "highway": "service" }, "geometry": null },
{ "type": "Feature", "id": "way\/617356211", "properties": { "@id": "way\/617356211", "highway": "service" }, "geometry": null },
{ "type": "Feature", "id": "way\/617356213", "properties": { "@id": "way\/617356213", "highway": "unclassified", "lanes": "2", "name": "ถนนธรรมจักร", "oneway": "yes", "name:en": "Thanon Thammajak" }, "geometry": null },
{ "type": "Feature", "id": "way\/617356216", "properties": { "@id": "way\/617356216", "highway": "unclassified", "oneway": "yes" }, "geometry": null },
{ "type": "Feature", "id": "way\/617356218", "properties": { "@id": "way\/617356218", "highway": "unclassified" }, "geometry": null },
{ "type": "Feature", "id": "way\/617356220", "properties": { "@id": "way\/617356220", "highway": "unclassified", "lanes": "2", "name": "ถนนธรรมจักร", "oneway": "yes", "name:en": "Thanon Thammajak" }, "geometry": null },
{ "type": "Feature", "id": "way\/617356223", "properties": { "@id": "way\/617356223", "highway": "unclassified", "lanes": "2", "name": "ถนนธรรมจักร", "oneway": "yes", "name:en": "Thanon Thammajak" }, "geometry": null },
{ "type": "Feature", "id": "way\/617356226", "properties": { "@id": "way\/617356226", "highway": "unclassified", "lanes": "2", "name": "ถนนธรรมจักร", "oneway": "yes", "name:en": "Thanon Thammajak", "bridge": "yes", "layer": "1" }, "geometry": null },
{ "type": "Feature", "id": "way\/617356230", "properties": { "@id": "way\/617356230", "highway": "unclassified", "lanes": "2", "name": "ถนนธรรมจักร", "oneway": "yes", "name:en": "Thanon Thammajak" }, "geometry": null },
{ "type": "Feature", "id": "way\/617517163", "properties": { "@id": "way\/617517163", "highway": "residential" }, "geometry": null },
{ "type": "Feature", "id": "way\/617517164", "properties": { "@id": "way\/617517164", "highway": "service" }, "geometry": null },
{ "type": "Feature", "id": "way\/617517165", "properties": { "@id": "way\/617517165", "highway": "service" }, "geometry": null },
{ "type": "Feature", "id": "way\/617517166", "properties": { "@id": "way\/617517166", "highway": "service" }, "geometry": null },
{ "type": "Feature", "id": "way\/617517167", "properties": { "@id": "way\/617517167", "highway": "service" }, "geometry": null },
{ "type": "Feature", "id": "way\/617517168", "properties": { "@id": "way\/617517168", "highway": "service" }, "geometry": null },
{ "type": "Feature", "id": "way\/617517169", "properties": { "@id": "way\/617517169", "highway": "service" }, "geometry": null },
{ "type": "Feature", "id": "way\/617517170", "properties": { "@id": "way\/617517170", "highway": "service" }, "geometry": null },
{ "type": "Feature", "id": "way\/617517171", "properties": { "@id": "way\/617517171", "highway": "service" }, "geometry": null },
{ "type": "Feature", "id": "way\/617517172", "properties": { "@id": "way\/617517172", "highway": "residential" }, "geometry": null },
{ "type": "Feature", "id": "way\/617517173", "properties": { "@id": "way\/617517173", "highway": "residential" }, "geometry": null },
{ "type": "Feature", "id": "way\/617517174", "properties": { "@id": "way\/617517174", "highway": "service" }, "geometry": null },
{ "type": "Feature", "id": "way\/617517175", "properties": { "@id": "way\/617517175", "highway": "service" }, "geometry": null },
{ "type": "Feature", "id": "way\/617517176", "properties": { "@id": "way\/617517176", "highway": "service" }, "geometry": null },
{ "type": "Feature", "id": "way\/617517177", "properties": { "@id": "way\/617517177", "highway": "service" }, "geometry": null },
{ "type": "Feature", "id": "way\/617517178", "properties": { "@id": "way\/617517178", "highway": "service" }, "geometry": null },
{ "type": "Feature", "id": "way\/617517179", "properties": { "@id": "way\/617517179", "highway": "service" }, "geometry": null },
{ "type": "Feature", "id": "way\/617517180", "properties": { "@id": "way\/617517180", "highway": "residential" }, "geometry": null },
{ "type": "Feature", "id": "way\/617517181", "properties": { "@id": "way\/617517181", "highway": "service" }, "geometry": null },
{ "type": "Feature", "id": "way\/617517182", "properties": { "@id": "way\/617517182", "highway": "service" }, "geometry": null },
{ "type": "Feature", "id": "way\/617517183", "properties": { "@id": "way\/617517183", "highway": "service" }, "geometry": null },
{ "type": "Feature", "id": "way\/617517184", "properties": { "@id": "way\/617517184", "highway": "service" }, "geometry": null },
{ "type": "Feature", "id": "way\/617517185", "properties": { "@id": "way\/617517185", "highway": "residential" }, "geometry": null },
{ "type": "Feature", "id": "way\/617517186", "properties": { "@id": "way\/617517186", "highway": "service" }, "geometry": null },
{ "type": "Feature", "id": "way\/617517187", "properties": { "@id": "way\/617517187", "highway": "service" }, "geometry": null },
{ "type": "Feature", "id": "way\/617517188", "properties": { "@id": "way\/617517188", "highway": "residential" }, "geometry": null },
{ "type": "Feature", "id": "way\/617517189", "properties": { "@id": "way\/617517189", "highway": "residential" }, "geometry": null },
{ "type": "Feature", "id": "way\/617517190", "properties": { "@id": "way\/617517190", "highway": "service" }, "geometry": null },
{ "type": "Feature", "id": "way\/617517251", "properties": { "@id": "way\/617517251", "highway": "service", "oneway": "yes", "bridge": "yes", "layer": "1" }, "geometry": null },
{ "type": "Feature", "id": "way\/617517252", "properties": { "@id": "way\/617517252", "highway": "service", "oneway": "yes" }, "geometry": null },
{ "type": "Feature", "id": "way\/617517391", "properties": { "@id": "way\/617517391", "highway": "service" }, "geometry": null },
{ "type": "Feature", "id": "way\/617519308", "properties": { "@id": "way\/617519308", "highway": "service" }, "geometry": null },
{ "type": "Feature", "id": "way\/617519310", "properties": { "@id": "way\/617519310", "highway": "service" }, "geometry": null },
{ "type": "Feature", "id": "way\/617519311", "properties": { "@id": "way\/617519311", "highway": "service", "oneway": "yes" }, "geometry": null },
{ "type": "Feature", "id": "way\/617519312", "properties": { "@id": "way\/617519312", "highway": "service" }, "geometry": null },
{ "type": "Feature", "id": "way\/617519319", "properties": { "@id": "way\/617519319", "highway": "service" }, "geometry": null },
{ "type": "Feature", "id": "way\/617519320", "properties": { "@id": "way\/617519320", "highway": "service" }, "geometry": null },
{ "type": "Feature", "id": "way\/617519324", "properties": { "@id": "way\/617519324", "highway": "service" }, "geometry": null },
{ "type": "Feature", "id": "way\/617519325", "properties": { "@id": "way\/617519325", "highway": "service" }, "geometry": null },
{ "type": "Feature", "id": "way\/617519326", "properties": { "@id": "way\/617519326", "highway": "service" }, "geometry": null },
{ "type": "Feature", "id": "way\/617519327", "properties": { "@id": "way\/617519327", "highway": "service" }, "geometry": null },
{ "type": "Feature", "id": "way\/617519328", "properties": { "@id": "way\/617519328", "highway": "service", "service": "parking_aisle" }, "geometry": null },
{ "type": "Feature", "id": "way\/617519329", "properties": { "@id": "way\/617519329", "highway": "service" }, "geometry": null },
{ "type": "Feature", "id": "way\/617519330", "properties": { "@id": "way\/617519330", "highway": "service" }, "geometry": null },
{ "type": "Feature", "id": "way\/617519331", "properties": { "@id": "way\/617519331", "highway": "service", "oneway": "yes", "service": "parking_aisle" }, "geometry": null },
{ "type": "Feature", "id": "way\/617519332", "properties": { "@id": "way\/617519332", "highway": "service", "oneway": "yes", "service": "parking_aisle" }, "geometry": null },
{ "type": "Feature", "id": "way\/617522613", "properties": { "@id": "way\/617522613", "highway": "service" }, "geometry": null },
{ "type": "Feature", "id": "way\/617522614", "properties": { "@id": "way\/617522614", "highway": "service" }, "geometry": null },
{ "type": "Feature", "id": "way\/617522618", "properties": { "@id": "way\/617522618", "highway": "service" }, "geometry": null },
{ "type": "Feature", "id": "way\/617522619", "properties": { "@id": "way\/617522619", "highway": "service" }, "geometry": null },
{ "type": "Feature", "id": "way\/617522620", "properties": { "@id": "way\/617522620", "highway": "service" }, "geometry": null },
{ "type": "Feature", "id": "way\/617522621", "properties": { "@id": "way\/617522621", "highway": "service" }, "geometry": null },
{ "type": "Feature", "id": "way\/617522624", "properties": { "@id": "way\/617522624", "highway": "service" }, "geometry": null },
{ "type": "Feature", "id": "way\/617522625", "properties": { "@id": "way\/617522625", "highway": "service" }, "geometry": null },
{ "type": "Feature", "id": "way\/617522626", "properties": { "@id": "way\/617522626", "highway": "service" }, "geometry": null },
{ "type": "Feature", "id": "way\/617522627", "properties": { "@id": "way\/617522627", "highway": "service" }, "geometry": null },
{ "type": "Feature", "id": "way\/617522628", "properties": { "@id": "way\/617522628", "highway": "service" }, "geometry": null },
{ "type": "Feature", "id": "way\/617522629", "properties": { "@id": "way\/617522629", "highway": "service" }, "geometry": null },
{ "type": "Feature", "id": "way\/617522630", "properties": { "@id": "way\/617522630", "highway": "service" }, "geometry": null },
{ "type": "Feature", "id": "way\/617530188", "properties": { "@id": "way\/617530188", "highway": "service" }, "geometry": { "type": "LineString", "coordinates": [ [ 100.6100679, 14.0713134 ], [ 100.610059, 14.0710951 ] ] } },
{ "type": "Feature", "id": "way\/617530189", "properties": { "@id": "way\/617530189", "highway": "service" }, "geometry": null },
{ "type": "Feature", "id": "way\/617530190", "properties": { "@id": "way\/617530190", "highway": "service" }, "geometry": null },
{ "type": "Feature", "id": "way\/617530191", "properties": { "@id": "way\/617530191", "highway": "service" }, "geometry": null },
{ "type": "Feature", "id": "way\/617530192", "properties": { "@id": "way\/617530192", "highway": "service" }, "geometry": null },
{ "type": "Feature", "id": "way\/617530193", "properties": { "@id": "way\/617530193", "highway": "service" }, "geometry": { "type": "LineString", "coordinates": [ [ 100.6097001, 14.0672779 ], [ 100.6092642, 14.0672942 ], [ 100.6092371, 14.0672799 ], [ 100.6092281, 14.0672613 ], [ 100.6092303, 14.0668894 ], [ 100.6092431, 14.0668665 ], [ 100.6092913, 14.06686 ] ] } },
{ "type": "Feature", "id": "way\/617530194", "properties": { "@id": "way\/617530194", "highway": "service" }, "geometry": { "type": "LineString", "coordinates": [ [ 100.6096956, 14.0674112 ], [ 100.6097001, 14.0672779 ], [ 100.6096978, 14.0672077 ], [ 100.6096718, 14.0671726 ] ] } },
{ "type": "Feature", "id": "way\/617530195", "properties": { "@id": "way\/617530195", "highway": "service" }, "geometry": { "type": "LineString", "coordinates": [ [ 100.6089976, 14.0669003 ], [ 100.6089979, 14.0671766 ], [ 100.6090003, 14.0672947 ], [ 100.6090009, 14.0673193 ], [ 100.6090015, 14.0673497 ], [ 100.609002, 14.0673753 ], [ 100.6090029, 14.0674164 ] ] } },
{ "type": "Feature", "id": "way\/617530196", "properties": { "@id": "way\/617530196", "highway": "service" }, "geometry": { "type": "LineString", "coordinates": [ [ 100.6071846, 14.0674355 ], [ 100.6071902, 14.0672898 ], [ 100.6071877, 14.0671735 ] ] } },
{ "type": "Feature", "id": "way\/617530197", "properties": { "@id": "way\/617530197", "highway": "service" }, "geometry": null },
{ "type": "Feature", "id": "way\/617530198", "properties": { "@id": "way\/617530198", "highway": "service" }, "geometry": null },
{ "type": "Feature", "id": "way\/617530199", "properties": { "@id": "way\/617530199", "highway": "service" }, "geometry": null },
{ "type": "Feature", "id": "way\/617530200", "properties": { "@id": "way\/617530200", "highway": "service" }, "geometry": null },
{ "type": "Feature", "id": "way\/617530201", "properties": { "@id": "way\/617530201", "highway": "service", "bridge": "yes", "layer": "1" }, "geometry": null },
{ "type": "Feature", "id": "way\/617530202", "properties": { "@id": "way\/617530202", "highway": "service" }, "geometry": null },
{ "type": "Feature", "id": "way\/617530203", "properties": { "@id": "way\/617530203", "highway": "service" }, "geometry": null },
{ "type": "Feature", "id": "way\/617530204", "properties": { "@id": "way\/617530204", "highway": "service" }, "geometry": null },
{ "type": "Feature", "id": "way\/617530205", "properties": { "@id": "way\/617530205", "highway": "service" }, "geometry": null },
{ "type": "Feature", "id": "way\/617530206", "properties": { "@id": "way\/617530206", "highway": "service" }, "geometry": null },
{ "type": "Feature", "id": "way\/617530208", "properties": { "@id": "way\/617530208", "highway": "service" }, "geometry": null },
{ "type": "Feature", "id": "way\/617530210", "properties": { "@id": "way\/617530210", "highway": "service" }, "geometry": null },
{ "type": "Feature", "id": "way\/617530211", "properties": { "@id": "way\/617530211", "highway": "service" }, "geometry": null },
{ "type": "Feature", "id": "way\/617530212", "properties": { "@id": "way\/617530212", "highway": "service", "oneway": "yes" }, "geometry": null },
{ "type": "Feature", "id": "way\/617538747", "properties": { "@id": "way\/617538747", "highway": "service", "oneway": "yes" }, "geometry": { "type": "LineString", "coordinates": [ [ 100.6135963, 14.0686383 ], [ 100.6135681, 14.0686344 ], [ 100.6135198, 14.0686565 ], [ 100.6134836, 14.0687137 ], [ 100.6134863, 14.0688386 ], [ 100.6135038, 14.0688842 ], [ 100.6135628, 14.0689115 ], [ 100.6136137, 14.0689089 ] ] } },
{ "type": "Feature", "id": "way\/617538750", "properties": { "@id": "way\/617538750", "highway": "service" }, "geometry": { "type": "LineString", "coordinates": [ [ 100.6127259, 14.0671995 ], [ 100.6129736, 14.0672036 ] ] } },
{ "type": "Feature", "id": "way\/617538751", "properties": { "@id": "way\/617538751", "highway": "service" }, "geometry": { "type": "LineString", "coordinates": [ [ 100.6126884, 14.0678239 ], [ 100.6126964, 14.0679007 ], [ 100.6127326, 14.0679098 ], [ 100.6129736, 14.0679124 ] ] } },
{ "type": "Feature", "id": "way\/617538753", "properties": { "@id": "way\/617538753", "highway": "service" }, "geometry": null },
{ "type": "Feature", "id": "way\/617538754", "properties": { "@id": "way\/617538754", "highway": "service" }, "geometry": null },
{ "type": "Feature", "id": "way\/617538765", "properties": { "@id": "way\/617538765", "highway": "residential" }, "geometry": null },
{ "type": "Feature", "id": "way\/617538766", "properties": { "@id": "way\/617538766", "highway": "service" }, "geometry": { "type": "LineString", "coordinates": [ [ 100.6167935, 14.067588 ], [ 100.6168056, 14.0674727 ], [ 100.6167519, 14.0672437 ], [ 100.6167264, 14.0672112 ] ] } },
{ "type": "Feature", "id": "way\/617538767", "properties": { "@id": "way\/617538767", "highway": "service" }, "geometry": { "type": "LineString", "coordinates": [ [ 100.6135963, 14.0686383 ], [ 100.6135963, 14.0688907 ], [ 100.6136137, 14.0689089 ], [ 100.6137209, 14.0689089 ] ] } },
{ "type": "Feature", "id": "way\/617538768", "properties": { "@id": "way\/617538768", "highway": "service" }, "geometry": { "type": "LineString", "coordinates": [ [ 100.6137854, 14.0687098 ], [ 100.6137465, 14.0687111 ], [ 100.6137105, 14.0687361 ] ] } },
{ "type": "Feature", "id": "way\/617538769", "properties": { "@id": "way\/617538769", "highway": "service" }, "geometry": null },
{ "type": "Feature", "id": "way\/617538770", "properties": { "@id": "way\/617538770", "highway": "service" }, "geometry": null },
{ "type": "Feature", "id": "way\/617538771", "properties": { "@id": "way\/617538771", "highway": "service" }, "geometry": null },
{ "type": "Feature", "id": "way\/617538772", "properties": { "@id": "way\/617538772", "highway": "service" }, "geometry": null },
{ "type": "Feature", "id": "way\/617538773", "properties": { "@id": "way\/617538773", "highway": "service" }, "geometry": null },
{ "type": "Feature", "id": "way\/617538774", "properties": { "@id": "way\/617538774", "highway": "service" }, "geometry": null },
{ "type": "Feature", "id": "way\/617538775", "properties": { "@id": "way\/617538775", "highway": "service" }, "geometry": null },
{ "type": "Feature", "id": "way\/617538776", "properties": { "@id": "way\/617538776", "highway": "service" }, "geometry": null },
{ "type": "Feature", "id": "way\/617538777", "properties": { "@id": "way\/617538777", "highway": "service" }, "geometry": null },
{ "type": "Feature", "id": "way\/617538778", "properties": { "@id": "way\/617538778", "highway": "service" }, "geometry": null },
{ "type": "Feature", "id": "way\/617538779", "properties": { "@id": "way\/617538779", "highway": "service" }, "geometry": null },
{ "type": "Feature", "id": "way\/617551810", "properties": { "@id": "way\/617551810", "highway": "residential" }, "geometry": null },
{ "type": "Feature", "id": "way\/617551813", "properties": { "@id": "way\/617551813", "highway": "residential" }, "geometry": null },
{ "type": "Feature", "id": "way\/617551814", "properties": { "@id": "way\/617551814", "highway": "track" }, "geometry": null },
{ "type": "Feature", "id": "way\/617551815", "properties": { "@id": "way\/617551815", "highway": "service" }, "geometry": null },
{ "type": "Feature", "id": "way\/617551816", "properties": { "@id": "way\/617551816", "highway": "service" }, "geometry": null },
{ "type": "Feature", "id": "way\/617551817", "properties": { "@id": "way\/617551817", "highway": "motorway_link", "oneway": "yes", "source": "GPS" }, "geometry": null },
{ "type": "Feature", "id": "way\/617555573", "properties": { "@id": "way\/617555573", "highway": "service" }, "geometry": null },
{ "type": "Feature", "id": "way\/617555574", "properties": { "@id": "way\/617555574", "highway": "service" }, "geometry": null },
{ "type": "Feature", "id": "way\/617555580", "properties": { "@id": "way\/617555580", "highway": "residential" }, "geometry": { "type": "LineString", "coordinates": [ [ 100.5991681, 14.0663738 ], [ 100.5992376, 14.0663825 ] ] } },
{ "type": "Feature", "id": "way\/617555581", "properties": { "@id": "way\/617555581", "highway": "service" }, "geometry": { "type": "LineString", "coordinates": [ [ 100.5988522, 14.0657156 ], [ 100.5988522, 14.0658583 ], [ 100.5988374, 14.0658622 ], [ 100.5985171, 14.0658622 ] ] } },
{ "type": "Feature", "id": "way\/617555582", "properties": { "@id": "way\/617555582", "highway": "service" }, "geometry": { "type": "LineString", "coordinates": [ [ 100.5985173, 14.0657253 ], [ 100.5985171, 14.0658622 ], [ 100.5985169, 14.0660209 ], [ 100.598541, 14.0660586 ], [ 100.5989782, 14.0660469 ] ] } },
{ "type": "Feature", "id": "way\/617555592", "properties": { "@id": "way\/617555592", "highway": "service" }, "geometry": null },
{ "type": "Feature", "id": "way\/617555593", "properties": { "@id": "way\/617555593", "highway": "service" }, "geometry": null },
{ "type": "Feature", "id": "way\/617555594", "properties": { "@id": "way\/617555594", "highway": "service" }, "geometry": null },
{ "type": "Feature", "id": "way\/617568452", "properties": { "@id": "way\/617568452", "highway": "service" }, "geometry": null },
{ "type": "Feature", "id": "way\/617568454", "properties": { "@id": "way\/617568454", "highway": "service" }, "geometry": null },
{ "type": "Feature", "id": "way\/617568455", "properties": { "@id": "way\/617568455", "highway": "service" }, "geometry": null },
{ "type": "Feature", "id": "way\/617568456", "properties": { "@id": "way\/617568456", "highway": "service" }, "geometry": null },
{ "type": "Feature", "id": "way\/617568457", "properties": { "@id": "way\/617568457", "highway": "service" }, "geometry": null },
{ "type": "Feature", "id": "way\/617568458", "properties": { "@id": "way\/617568458", "highway": "service" }, "geometry": null },
{ "type": "Feature", "id": "way\/617568462", "properties": { "@id": "way\/617568462", "highway": "service" }, "geometry": null },
{ "type": "Feature", "id": "way\/617569467", "properties": { "@id": "way\/617569467", "highway": "service" }, "geometry": null },
{ "type": "Feature", "id": "way\/617569468", "properties": { "@id": "way\/617569468", "highway": "service" }, "geometry": null },
{ "type": "Feature", "id": "way\/617571497", "properties": { "@id": "way\/617571497", "highway": "service" }, "geometry": null },
{ "type": "Feature", "id": "way\/617571499", "properties": { "@id": "way\/617571499", "highway": "service" }, "geometry": null },
{ "type": "Feature", "id": "way\/617571501", "properties": { "@id": "way\/617571501", "highway": "service" }, "geometry": null },
{ "type": "Feature", "id": "way\/617571502", "properties": { "@id": "way\/617571502", "highway": "service" }, "geometry": null },
{ "type": "Feature", "id": "way\/617571504", "properties": { "@id": "way\/617571504", "highway": "service" }, "geometry": null },
{ "type": "Feature", "id": "way\/617571505", "properties": { "@id": "way\/617571505", "highway": "service" }, "geometry": null },
{ "type": "Feature", "id": "way\/617571507", "properties": { "@id": "way\/617571507", "highway": "service" }, "geometry": null },
{ "type": "Feature", "id": "way\/617571508", "properties": { "@id": "way\/617571508", "highway": "service" }, "geometry": null },
{ "type": "Feature", "id": "way\/617571510", "properties": { "@id": "way\/617571510", "highway": "service" }, "geometry": null },
{ "type": "Feature", "id": "way\/617571525", "properties": { "@id": "way\/617571525", "highway": "residential" }, "geometry": { "type": "LineString", "coordinates": [ [ 100.6052045, 14.0665444 ], [ 100.6100257, 14.0664917 ] ] } },
{ "type": "Feature", "id": "way\/617571527", "properties": { "@id": "way\/617571527", "highway": "residential" }, "geometry": null },
{ "type": "Feature", "id": "way\/617571528", "properties": { "@id": "way\/617571528", "highway": "service" }, "geometry": null },
{ "type": "Feature", "id": "way\/617571530", "properties": { "@id": "way\/617571530", "highway": "service" }, "geometry": null },
{ "type": "Feature", "id": "way\/617571531", "properties": { "@id": "way\/617571531", "highway": "service" }, "geometry": null },
{ "type": "Feature", "id": "way\/617571532", "properties": { "@id": "way\/617571532", "highway": "service" }, "geometry": null },
{ "type": "Feature", "id": "way\/617573288", "properties": { "@id": "way\/617573288", "highway": "service" }, "geometry": null },
{ "type": "Feature", "id": "way\/618122347", "properties": { "@id": "way\/618122347", "highway": "service" }, "geometry": { "type": "LineString", "coordinates": [ [ 100.6073575, 14.0669549 ], [ 100.6073736, 14.0669003 ], [ 100.6074111, 14.0668717 ], [ 100.607741, 14.0668691 ] ] } },
{ "type": "Feature", "id": "way\/618122348", "properties": { "@id": "way\/618122348", "highway": "service" }, "geometry": { "type": "LineString", "coordinates": [ [ 100.6071858, 14.0670499 ], [ 100.6072555, 14.0669797 ], [ 100.6073213, 14.0669536 ], [ 100.6073575, 14.0669549 ], [ 100.6074125, 14.0669927 ], [ 100.6074513, 14.0670278 ], [ 100.6074766, 14.0674283 ] ] } },
{ "type": "Feature", "id": "way\/618122349", "properties": { "@id": "way\/618122349", "highway": "service" }, "geometry": { "type": "LineString", "coordinates": [ [ 100.6080308, 14.0669565 ], [ 100.6080455, 14.0673205 ], [ 100.6080776, 14.0673517 ], [ 100.608079, 14.0674223 ] ] } },
{ "type": "Feature", "id": "way\/618122350", "properties": { "@id": "way\/618122350", "highway": "service" }, "geometry": { "type": "LineString", "coordinates": [ [ 100.6084625, 14.0669706 ], [ 100.6084344, 14.0669497 ], [ 100.6080308, 14.0669565 ], [ 100.6078899, 14.0669588 ], [ 100.6078255, 14.0670187 ] ] } },
{ "type": "Feature", "id": "way\/618122351", "properties": { "@id": "way\/618122351", "highway": "service" }, "geometry": { "type": "LineString", "coordinates": [ [ 100.6084665, 14.0674184 ], [ 100.6084612, 14.0671852 ], [ 100.6084625, 14.0669706 ] ] } },
{ "type": "Feature", "id": "way\/618122352", "properties": { "@id": "way\/618122352", "highway": "service" }, "geometry": { "type": "LineString", "coordinates": [ [ 100.6084625, 14.0669706 ], [ 100.6085108, 14.0669471 ], [ 100.6086288, 14.0669107 ], [ 100.6087603, 14.0669003 ], [ 100.6089976, 14.0669003 ] ] } },
{ "type": "Feature", "id": "way\/618122353", "properties": { "@id": "way\/618122353", "highway": "service" }, "geometry": { "type": "LineString", "coordinates": [ [ 100.6089979, 14.0671766 ], [ 100.6084612, 14.0671852 ] ] } },
{ "type": "Feature", "id": "way\/618132414", "properties": { "@id": "way\/618132414", "highway": "steps" }, "geometry": null },
{ "type": "Feature", "id": "way\/618132415", "properties": { "@id": "way\/618132415", "highway": "tertiary_link", "oneway": "yes" }, "geometry": null },
{ "type": "Feature", "id": "way\/618135198", "properties": { "@id": "way\/618135198", "highway": "residential" }, "geometry": null },
{ "type": "Feature", "id": "way\/618135200", "properties": { "@id": "way\/618135200", "highway": "service" }, "geometry": null },
{ "type": "Feature", "id": "way\/618135201", "properties": { "@id": "way\/618135201", "highway": "service" }, "geometry": null },
{ "type": "Feature", "id": "way\/618135202", "properties": { "@id": "way\/618135202", "highway": "service" }, "geometry": null },
{ "type": "Feature", "id": "way\/618135203", "properties": { "@id": "way\/618135203", "highway": "service" }, "geometry": null },
{ "type": "Feature", "id": "way\/618135204", "properties": { "@id": "way\/618135204", "highway": "service" }, "geometry": null },
{ "type": "Feature", "id": "way\/618135205", "properties": { "@id": "way\/618135205", "highway": "service" }, "geometry": null },
{ "type": "Feature", "id": "way\/618135206", "properties": { "@id": "way\/618135206", "highway": "service" }, "geometry": null },
{ "type": "Feature", "id": "way\/618135207", "properties": { "@id": "way\/618135207", "highway": "service" }, "geometry": null },
{ "type": "Feature", "id": "way\/618135208", "properties": { "@id": "way\/618135208", "highway": "service" }, "geometry": null },
{ "type": "Feature", "id": "way\/618135209", "properties": { "@id": "way\/618135209", "highway": "service" }, "geometry": null },
{ "type": "Feature", "id": "way\/618135210", "properties": { "@id": "way\/618135210", "highway": "service" }, "geometry": null },
{ "type": "Feature", "id": "way\/618135211", "properties": { "@id": "way\/618135211", "highway": "service" }, "geometry": null },
{ "type": "Feature", "id": "way\/618135212", "properties": { "@id": "way\/618135212", "highway": "service" }, "geometry": null },
{ "type": "Feature", "id": "way\/618135213", "properties": { "@id": "way\/618135213", "highway": "service" }, "geometry": null },
{ "type": "Feature", "id": "way\/618135214", "properties": { "@id": "way\/618135214", "highway": "service" }, "geometry": null },
{ "type": "Feature", "id": "way\/618135215", "properties": { "@id": "way\/618135215", "highway": "service" }, "geometry": null },
{ "type": "Feature", "id": "way\/618135216", "properties": { "@id": "way\/618135216", "highway": "service" }, "geometry": null },
{ "type": "Feature", "id": "way\/618135217", "properties": { "@id": "way\/618135217", "highway": "service" }, "geometry": null },
{ "type": "Feature", "id": "way\/618135218", "properties": { "@id": "way\/618135218", "highway": "service" }, "geometry": null },
{ "type": "Feature", "id": "way\/618135219", "properties": { "@id": "way\/618135219", "highway": "service" }, "geometry": null },
{ "type": "Feature", "id": "way\/618135220", "properties": { "@id": "way\/618135220", "highway": "service" }, "geometry": null },
{ "type": "Feature", "id": "way\/618135221", "properties": { "@id": "way\/618135221", "highway": "service" }, "geometry": null },
{ "type": "Feature", "id": "way\/618135222", "properties": { "@id": "way\/618135222", "highway": "service" }, "geometry": null },
{ "type": "Feature", "id": "way\/618135223", "properties": { "@id": "way\/618135223", "highway": "service" }, "geometry": null },
{ "type": "Feature", "id": "way\/618135224", "properties": { "@id": "way\/618135224", "highway": "service" }, "geometry": null },
{ "type": "Feature", "id": "way\/618135225", "properties": { "@id": "way\/618135225", "highway": "service" }, "geometry": null },
{ "type": "Feature", "id": "way\/621098664", "properties": { "@id": "way\/621098664", "highway": "steps" }, "geometry": null },
{ "type": "Feature", "id": "way\/621098666", "properties": { "@id": "way\/621098666", "highway": "steps" }, "geometry": null },
{ "type": "Feature", "id": "way\/621098668", "properties": { "@id": "way\/621098668", "highway": "service" }, "geometry": null },
{ "type": "Feature", "id": "way\/623236705", "properties": { "@id": "way\/623236705", "highway": "service" }, "geometry": null },
{ "type": "Feature", "id": "way\/694593160", "properties": { "@id": "way\/694593160", "highway": "unclassified", "name": "คชสาร", "source": "GPS" }, "geometry": null },
{ "type": "Feature", "id": "way\/694594151", "properties": { "@id": "way\/694594151", "highway": "unclassified", "name": "คชสาร", "source": "GPS" }, "geometry": null },
{ "type": "Feature", "id": "way\/694594153", "properties": { "@id": "way\/694594153", "highway": "residential" }, "geometry": null },
{ "type": "Feature", "id": "way\/694594154", "properties": { "@id": "way\/694594154", "highway": "residential" }, "geometry": null },
{ "type": "Feature", "id": "way\/694594155", "properties": { "@id": "way\/694594155", "highway": "residential" }, "geometry": null },
{ "type": "Feature", "id": "way\/694594156", "properties": { "@id": "way\/694594156", "highway": "residential" }, "geometry": null },
{ "type": "Feature", "id": "way\/694594557", "properties": { "@id": "way\/694594557", "highway": "residential", "name": "ถนนเอเซี่ยนเกมส์", "name:en": "Thanon Asian Games" }, "geometry": { "type": "LineString", "coordinates": [ [ 100.5966577, 14.0762713 ], [ 100.5966534, 14.0762065 ], [ 100.5966656, 14.0758309 ], [ 100.5966791, 14.0755341 ], [ 100.5967013, 14.0747931 ], [ 100.5967106, 14.0745035 ], [ 100.5967291, 14.0739402 ], [ 100.5967445, 14.0734845 ], [ 100.596746, 14.0734383 ], [ 100.5967622, 14.0729572 ], [ 100.5968219, 14.0728015 ], [ 100.597038, 14.0722374 ], [ 100.597075, 14.0721407 ], [ 100.5973439, 14.0715956 ], [ 100.5973525, 14.0715388 ], [ 100.5973797, 14.0711935 ] ] } },
{ "type": "Feature", "id": "way\/738335733", "properties": { "@id": "way\/738335733", "highway": "unclassified", "lanes": "2", "name": "ถนนยูงทอง", "oneway": "yes", "name:en": "Thanon Yoongthong" }, "geometry": { "type": "LineString", "coordinates": [ [ 100.5954122, 14.0767099 ], [ 100.5953364, 14.0767965 ], [ 100.5952004, 14.0769779 ], [ 100.5951472, 14.0770717 ], [ 100.5950776, 14.0771749 ], [ 100.5950374, 14.077257 ], [ 100.5950006, 14.0773455 ] ] } },
{ "type": "Feature", "id": "way\/754255198", "properties": { "@id": "way\/754255198", "highway": "unclassified", "lanes": "2", "name": "ถนนประชาสันติ", "oneway": "yes", "name:en": "Thanon Pracha Santi" }, "geometry": { "type": "LineString", "coordinates": [ [ 100.6050922, 14.0661458 ], [ 100.6050997, 14.0663946 ], [ 100.6051083, 14.0666804 ], [ 100.6051205, 14.0673309 ], [ 100.6051253, 14.0674543 ] ] } },
{ "type": "Feature", "id": "way\/754255199", "properties": { "@id": "way\/754255199", "highway": "unclassified", "lanes": "2", "name": "ถนนประชาสันติ", "oneway": "yes", "name:en": "Thanon Pracha Santi" }, "geometry": { "type": "LineString", "coordinates": [ [ 100.6051903, 14.0661465 ], [ 100.6051914, 14.0660623 ], [ 100.6051756, 14.0657286 ], [ 100.6052039, 14.0655597 ] ] } },
{ "type": "Feature", "id": "way\/754267301", "properties": { "@id": "way\/754267301", "highway": "unclassified", "lanes": "2", "name": "ถนนตลาดวิชา", "oneway": "no", "name:en": "Thanon Talad Vicha" }, "geometry": { "type": "LineString", "coordinates": [ [ 100.6016545, 14.0704688 ], [ 100.60165, 14.070867 ], [ 100.6016533, 14.0714312 ], [ 100.6016458, 14.0720163 ], [ 100.6016458, 14.0720451 ], [ 100.6016423, 14.0720874 ], [ 100.6016229, 14.0728819 ], [ 100.6016216, 14.0729449 ], [ 100.6016216, 14.0729671 ], [ 100.6016199, 14.0730179 ], [ 100.6016145, 14.0736948 ], [ 100.6016317, 14.0746108 ], [ 100.6016361, 14.0747602 ] ] } },
{ "type": "Feature", "id": "way\/754267302", "properties": { "@id": "way\/754267302", "highway": "unclassified", "lanes": "2", "name": "ถนนยูงทอง", "oneway": "yes", "name:en": "Thanon Yoongthong" }, "geometry": { "type": "LineString", "coordinates": [ [ 100.5966577, 14.0762713 ], [ 100.5965071, 14.0762772 ], [ 100.5961554, 14.0763265 ], [ 100.5959762, 14.0763597 ], [ 100.5957537, 14.0764597 ], [ 100.5956649, 14.0765079 ], [ 100.5955142, 14.0766096 ], [ 100.5954122, 14.0767099 ] ] } },
{ "type": "Feature", "id": "way\/754267303", "properties": { "@id": "way\/754267303", "highway": "unclassified", "name": "ถนนยูงทอง", "name:en": "Thanon Yoongthong", "junction": "roundabout" }, "geometry": { "type": "LineString", "coordinates": [ [ 100.5980673, 14.0761884 ], [ 100.5980202, 14.0761513 ], [ 100.59796, 14.0761451 ], [ 100.5979087, 14.0761695 ], [ 100.5978777, 14.076216 ], [ 100.5978734, 14.0762566 ], [ 100.5978857, 14.0762956 ] ] } },
{ "type": "Feature", "id": "way\/754267304", "properties": { "@id": "way\/754267304", "highway": "unclassified", "name": "ถนนยูงทอง", "name:en": "Thanon Yoongthong", "junction": "roundabout" }, "geometry": { "type": "LineString", "coordinates": [ [ 100.5980804, 14.0762791 ], [ 100.5980848, 14.0762323 ], [ 100.5980673, 14.0761884 ] ] } },
{ "type": "Feature", "id": "way\/754267305", "properties": { "@id": "way\/754267305", "highway": "unclassified", "lanes": "2", "name": "ถนนยูงทอง", "oneway": "yes", "name:en": "Thanon Yoongthong" }, "geometry": null },
{ "type": "Feature", "id": "way\/754267306", "properties": { "@id": "way\/754267306", "highway": "residential", "oneway": "yes" }, "geometry": { "type": "LineString", "coordinates": [ [ 100.6016656, 14.0760634 ], [ 100.6016175, 14.0759655 ] ] } },
{ "type": "Feature", "id": "way\/754267307", "properties": { "@id": "way\/754267307", "highway": "unclassified", "name": "ถนนตลาดวิชา", "name:en": "Thanon Talad Vicha", "direction": "clockwise", "junction": "roundabout" }, "geometry": { "type": "LineString", "coordinates": [ [ 100.6016361, 14.0747602 ], [ 100.6015917, 14.0747719 ], [ 100.6015578, 14.0748022 ], [ 100.6015423, 14.0748443 ], [ 100.6015464, 14.074883 ], [ 100.6015663, 14.0749167 ], [ 100.6015987, 14.0749398 ], [ 100.6016378, 14.0749481 ] ] } },
{ "type": "Feature", "id": "way\/754267308", "properties": { "@id": "way\/754267308", "highway": "unclassified", "lanes": "2", "name": "ถนนป๋วย อึ้งภากรณ์", "oneway": "no", "name:en": "Thanon Puey Ungpakorn" }, "geometry": { "type": "LineString", "coordinates": [ [ 100.6042457, 14.0702513 ], [ 100.6041087, 14.0702506 ], [ 100.6033677, 14.0702483 ], [ 100.6028675, 14.070241 ], [ 100.602773, 14.0702442 ], [ 100.6027029, 14.0702446 ], [ 100.6020089, 14.0702403 ], [ 100.6019109, 14.070238 ], [ 100.6018625, 14.0702362 ], [ 100.6017196, 14.0702323 ], [ 100.6016591, 14.0702306 ] ] } },
{ "type": "Feature", "id": "node\/783770316", "properties": { "@id": "node\/783770316", "highway": "bus_stop", "name:en": "Bus stop\/ Minivan Chatuchak (BTS Mo Chit)", "bus": "yes", "public_transport": "platform" }, "geometry": { "type": "Point", "coordinates": [ 100.6015232, 14.0755461 ] } },
{ "type": "Feature", "id": "node\/816332226", "properties": { "@id": "node\/816332226", "highway": "bus_stop", "name": "Station 1", "ref": "1", "bus": "yes", "public_transport": "platform" }, "geometry": { "type": "Point", "coordinates": [ 100.6016992, 14.0753508 ] } },
{ "type": "Feature", "id": "node\/944238253", "properties": { "@id": "node\/944238253", "highway": "crossing" }, "geometry": null },
{ "type": "Feature", "id": "node\/944249297", "properties": { "@id": "node\/944249297", "highway": "crossing", "crossing": "uncontrolled" }, "geometry": null },
{ "type": "Feature", "id": "node\/944251071", "properties": { "@id": "node\/944251071", "highway": "crossing" }, "geometry": null },
{ "type": "Feature", "id": "node\/944251924", "properties": { "@id": "node\/944251924", "highway": "crossing" }, "geometry": null },
{ "type": "Feature", "id": "node\/944254077", "properties": { "@id": "node\/944254077", "highway": "crossing" }, "geometry": null },
{ "type": "Feature", "id": "node\/1234518419", "properties": { "@id": "node\/1234518419", "highway": "bus_stop", "name": "Station 13", "ref": "13" }, "geometry": { "type": "Point", "coordinates": [ 100.6007981, 14.0759921 ] } },
{ "type": "Feature", "id": "node\/2064125741", "properties": { "@id": "node\/2064125741", "highway": "crossing" }, "geometry": null },
{ "type": "Feature", "id": "node\/2064150677", "properties": { "@id": "node\/2064150677", "highway": "bus_stop", "bus": "yes", "public_transport": "platform" }, "geometry": { "type": "Point", "coordinates": [ 100.6017707, 14.0695374 ] } },
{ "type": "Feature", "id": "node\/2064158832", "properties": { "@id": "node\/2064158832", "highway": "bus_stop", "bus": "yes", "public_transport": "platform" }, "geometry": { "type": "Point", "coordinates": [ 100.604824, 14.0675485 ] } },
{ "type": "Feature", "id": "node\/2064158834", "properties": { "@id": "node\/2064158834", "highway": "bus_stop", "name": "Station 10", "ref": "10", "bus": "yes", "public_transport": "platform" }, "geometry": { "type": "Point", "coordinates": [ 100.6032404, 14.067412 ] } },
{ "type": "Feature", "id": "node\/2266123690", "properties": { "@id": "node\/2266123690", "highway": "crossing" }, "geometry": null },
{ "type": "Feature", "id": "node\/2370503168", "properties": { "@id": "node\/2370503168", "highway": "crossing" }, "geometry": null },
{ "type": "Feature", "id": "node\/2370503225", "properties": { "@id": "node\/2370503225", "highway": "bus_stop", "bus": "yes", "public_transport": "platform" }, "geometry": { "type": "Point", "coordinates": [ 100.6031482, 14.0675666 ] } },
{ "type": "Feature", "id": "node\/2370513753", "properties": { "@id": "node\/2370513753", "highway": "bus_stop", "name": "Station 11", "ref": "11", "bus": "yes", "public_transport": "platform" }, "geometry": { "type": "Point", "coordinates": [ 100.601579, 14.0696889 ] } },
{ "type": "Feature", "id": "node\/2371707795", "properties": { "@id": "node\/2371707795", "highway": "bus_stop", "name": "Station 5", "ref": "5", "bus": "yes", "public_transport": "platform" }, "geometry": { "type": "Point", "coordinates": [ 100.6017046, 14.0712794 ] } },
{ "type": "Feature", "id": "node\/2371707798", "properties": { "@id": "node\/2371707798", "highway": "bus_stop", "bus": "yes", "public_transport": "platform" }, "geometry": { "type": "Point", "coordinates": [ 100.6015688, 14.0713483 ] } },
{ "type": "Feature", "id": "node\/2371716879", "properties": { "@id": "node\/2371716879", "highway": "bus_stop", "name": "Station 29", "ref": "29" }, "geometry": { "type": "Point", "coordinates": [ 100.6020627, 14.0720108 ] } },
{ "type": "Feature", "id": "node\/2371716881", "properties": { "@id": "node\/2371716881", "highway": "bus_stop", "name": "Station 20", "ref": "20" }, "geometry": { "type": "Point", "coordinates": [ 100.6021822, 14.0721083 ] } },
{ "type": "Feature", "id": "node\/2372097039", "properties": { "@id": "node\/2372097039", "highway": "bus_stop", "name": "Station 27", "ref": "27" }, "geometry": { "type": "Point", "coordinates": [ 100.6063136, 14.0720672 ] } },
{ "type": "Feature", "id": "node\/2372097044", "properties": { "@id": "node\/2372097044", "highway": "bus_stop", "name": "Station 22", "ref": "22" }, "geometry": { "type": "Point", "coordinates": [ 100.6064384, 14.0721348 ] } },
{ "type": "Feature", "id": "node\/2372892166", "properties": { "@id": "node\/2372892166", "highway": "crossing" }, "geometry": null },
{ "type": "Feature", "id": "node\/2373416561", "properties": { "@id": "node\/2373416561", "highway": "crossing" }, "geometry": null },
{ "type": "Feature", "id": "node\/2373416567", "properties": { "@id": "node\/2373416567", "highway": "crossing" }, "geometry": null },
{ "type": "Feature", "id": "node\/2373416579", "properties": { "@id": "node\/2373416579", "highway": "crossing" }, "geometry": null },
{ "type": "Feature", "id": "node\/2373416588", "properties": { "@id": "node\/2373416588", "highway": "crossing" }, "geometry": null },
{ "type": "Feature", "id": "node\/2373416594", "properties": { "@id": "node\/2373416594", "highway": "crossing" }, "geometry": null },
{ "type": "Feature", "id": "node\/2373416603", "properties": { "@id": "node\/2373416603", "highway": "crossing" }, "geometry": null },
{ "type": "Feature", "id": "node\/2373553769", "properties": { "@id": "node\/2373553769", "highway": "crossing" }, "geometry": null },
{ "type": "Feature", "id": "node\/2373826558", "properties": { "@id": "node\/2373826558", "highway": "crossing" }, "geometry": null },
{ "type": "Feature", "id": "node\/2373826559", "properties": { "@id": "node\/2373826559", "highway": "crossing" }, "geometry": null },
{ "type": "Feature", "id": "node\/2373826560", "properties": { "@id": "node\/2373826560", "highway": "crossing" }, "geometry": null },
{ "type": "Feature", "id": "node\/2373826561", "properties": { "@id": "node\/2373826561", "highway": "crossing" }, "geometry": null },
{ "type": "Feature", "id": "node\/2373826562", "properties": { "@id": "node\/2373826562", "highway": "crossing" }, "geometry": null },
{ "type": "Feature", "id": "node\/2378242966", "properties": { "@id": "node\/2378242966", "highway": "bus_stop", "name": "Station 9", "ref": "9", "bus": "yes", "public_transport": "platform" }, "geometry": { "type": "Point", "coordinates": [ 100.6045649, 14.0674034 ] } },
{ "type": "Feature", "id": "node\/2379720763", "properties": { "@id": "node\/2379720763", "highway": "bus_stop", "bus": "yes", "public_transport": "platform" }, "geometry": { "type": "Point", "coordinates": [ 100.6015521, 14.0726458 ] } },
{ "type": "Feature", "id": "node\/2379744095", "properties": { "@id": "node\/2379744095", "highway": "bus_stop", "name": "Station 2", "ref": "2" }, "geometry": null },
{ "type": "Feature", "id": "node\/2379756224", "properties": { "@id": "node\/2379756224", "highway": "bus_stop", "bus": "yes", "public_transport": "platform" }, "geometry": { "type": "Point", "coordinates": [ 100.5971674, 14.0721095 ] } },
{ "type": "Feature", "id": "node\/2379756238", "properties": { "@id": "node\/2379756238", "highway": "bus_stop", "bus": "yes", "public_transport": "platform" }, "geometry": { "type": "Point", "coordinates": [ 100.5969453, 14.0727352 ] } },
{ "type": "Feature", "id": "node\/2379756301", "properties": { "@id": "node\/2379756301", "highway": "bus_stop", "bus": "yes", "public_transport": "platform" }, "geometry": { "type": "Point", "coordinates": [ 100.5968055, 14.0732889 ] } },
{ "type": "Feature", "id": "node\/2379765580", "properties": { "@id": "node\/2379765580", "highway": "bus_stop" }, "geometry": { "type": "Point", "coordinates": [ 100.5967768, 14.0745892 ] } },
{ "type": "Feature", "id": "node\/2379765607", "properties": { "@id": "node\/2379765607", "highway": "bus_stop", "bus": "yes", "public_transport": "platform" }, "geometry": { "type": "Point", "coordinates": [ 100.5967699, 14.0752278 ] } },
{ "type": "Feature", "id": "node\/2379765646", "properties": { "@id": "node\/2379765646", "highway": "bus_stop", "bus": "yes", "public_transport": "platform" }, "geometry": { "type": "Point", "coordinates": [ 100.5967467, 14.0759706 ] } },
{ "type": "Feature", "id": "node\/2379765659", "properties": { "@id": "node\/2379765659", "highway": "bus_stop", "name": "Station 15", "ref": "15" }, "geometry": { "type": "Point", "coordinates": [ 100.5972855, 14.076199 ] } },
{ "type": "Feature", "id": "node\/2379765660", "properties": { "@id": "node\/2379765660", "highway": "bus_stop", "name": "Station 17", "ref": "17", "bus": "yes", "public_transport": "platform" }, "geometry": { "type": "Point", "coordinates": [ 100.5971648, 14.0763519 ] } },
{ "type": "Feature", "id": "node\/2379770270", "properties": { "@id": "node\/2379770270", "highway": "bus_stop", "name": "Station 16", "ref": "16", "bus": "yes", "public_transport": "platform" }, "geometry": { "type": "Point", "coordinates": [ 100.5960617, 14.0764431 ] } },
{ "type": "Feature", "id": "node\/2379770285", "properties": { "@id": "node\/2379770285", "highway": "bus_stop", "bus": "yes", "public_transport": "platform" }, "geometry": { "type": "Point", "coordinates": [ 100.5951528, 14.0771637 ] } },
{ "type": "Feature", "id": "node\/2418865869", "properties": { "@id": "node\/2418865869", "highway": "bus_stop", "name": "Station 25", "ref": "25" }, "geometry": { "type": "Point", "coordinates": [ 100.6118724, 14.0721123 ] } },
{ "type": "Feature", "id": "node\/2419038025", "properties": { "@id": "node\/2419038025", "highway": "bus_stop" }, "geometry": { "type": "Point", "coordinates": [ 100.6065965, 14.0685753 ] } },
{ "type": "Feature", "id": "node\/2419115968", "properties": { "@id": "node\/2419115968", "highway": "bus_stop", "name": "Station 28", "ref": "28" }, "geometry": { "type": "Point", "coordinates": [ 100.6053284, 14.0720743 ] } },
{ "type": "Feature", "id": "node\/2419562794", "properties": { "@id": "node\/2419562794", "highway": "bus_stop", "name": "Station 26", "ref": "26" }, "geometry": { "type": "Point", "coordinates": [ 100.6083042, 14.0720894 ] } },
{ "type": "Feature", "id": "node\/2419562804", "properties": { "@id": "node\/2419562804", "highway": "bus_stop", "name": "Station 23", "ref": "23" }, "geometry": { "type": "Point", "coordinates": [ 100.6082091, 14.0721536 ] } },
{ "type": "Feature", "id": "node\/2419616152", "properties": { "@id": "node\/2419616152", "highway": "bus_stop", "name": "Station 30", "ref": "30", "bus": "yes", "public_transport": "platform" }, "geometry": { "type": "Point", "coordinates": [ 100.6013713, 14.0704241 ] } },
{ "type": "Feature", "id": "node\/2419616164", "properties": { "@id": "node\/2419616164", "highway": "bus_stop", "name": "Station 24", "ref": "24" }, "geometry": { "type": "Point", "coordinates": [ 100.6132394, 14.072121 ] } },
{ "type": "Feature", "id": "node\/2419616193", "properties": { "@id": "node\/2419616193", "highway": "bus_stop", "name": "Station 4", "ref": "4", "bus": "yes", "public_transport": "platform" }, "geometry": { "type": "Point", "coordinates": [ 100.6016961, 14.0734309 ] } },
{ "type": "Feature", "id": "node\/2419616203", "properties": { "@id": "node\/2419616203", "highway": "bus_stop", "bus": "yes", "public_transport": "platform" }, "geometry": { "type": "Point", "coordinates": [ 100.5967595, 14.0742892 ] } },
{ "type": "Feature", "id": "node\/2419616204", "properties": { "@id": "node\/2419616204", "highway": "bus_stop", "name": "Station 14", "ref": "14" }, "geometry": { "type": "Point", "coordinates": [ 100.5986661, 14.0761205 ] } },
{ "type": "Feature", "id": "node\/2419616205", "properties": { "@id": "node\/2419616205", "highway": "bus_stop", "name": "Station 19", "ref": "19", "bus": "yes", "public_transport": "platform" }, "geometry": { "type": "Point", "coordinates": [ 100.6000773, 14.0762045 ] } },
{ "type": "Feature", "id": "node\/2419627306", "properties": { "@id": "node\/2419627306", "highway": "bus_stop", "name": "Station 21", "ref": "21" }, "geometry": { "type": "Point", "coordinates": [ 100.6052265, 14.0721235 ] } },
{ "type": "Feature", "id": "node\/2420669755", "properties": { "@id": "node\/2420669755", "highway": "bus_stop", "name": "Station 7", "ref": "7", "bus": "yes", "public_transport": "platform" }, "geometry": { "type": "Point", "coordinates": [ 100.6092024, 14.067342 ] } },
{ "type": "Feature", "id": "node\/2420669756", "properties": { "@id": "node\/2420669756", "highway": "bus_stop", "name": "Station 8", "ref": "8", "bus": "yes", "public_transport": "platform" }, "geometry": { "type": "Point", "coordinates": [ 100.60581, 14.067384 ] } },
{ "type": "Feature", "id": "node\/2426869187", "properties": { "@id": "node\/2426869187", "highway": "crossing" }, "geometry": null },
{ "type": "Feature", "id": "node\/2426869280", "properties": { "@id": "node\/2426869280", "highway": "bus_stop" }, "geometry": null },
{ "type": "Feature", "id": "node\/2496031667", "properties": { "@id": "node\/2496031667", "highway": "bus_stop", "bus": "yes", "public_transport": "platform" }, "geometry": { "type": "Point", "coordinates": [ 100.6016798, 14.0744139 ] } },
{ "type": "Feature", "id": "node\/2496032284", "properties": { "@id": "node\/2496032284", "highway": "bus_stop", "bus": "yes", "public_transport": "platform" }, "geometry": { "type": "Point", "coordinates": [ 100.6015559, 14.0744061 ] } },
{ "type": "Feature", "id": "node\/2587704543", "properties": { "@id": "node\/2587704543", "highway": "bus_stop", "name": "Minivans to Tha Phra Chan" }, "geometry": null },
{ "type": "Feature", "id": "node\/5322290194", "properties": { "@id": "node\/5322290194", "highway": "bus_stop" }, "geometry": null },
{ "type": "Feature", "id": "node\/5843112565", "properties": { "@id": "node\/5843112565", "highway": "motorway_junction" }, "geometry": null },
{ "type": "Feature", "id": "node\/7046574570", "properties": { "@id": "node\/7046574570", "highway": "bus_stop", "name": "TU Dome Station", "bus": "yes", "public_transport": "platform", "network": "TU", "operator": "TU", "shelter": "yes" }, "geometry": { "type": "Point", "coordinates": [ 100.600545, 14.0659632 ] } },
{ "type": "Feature", "id": "node\/7046574571", "properties": { "@id": "node\/7046574571", "highway": "bus_stop", "name": "เชียงราก Station", "bus": "yes", "public_transport": "platform", "network": "TU", "operator": "TU" }, "geometry": { "type": "Point", "coordinates": [ 100.6050997, 14.0663946 ] } },
{ "type": "Feature", "id": "node\/7046704984", "properties": { "@id": "node\/7046704984", "highway": "bus_stop", "name": "SC Station", "bus": "yes", "public_transport": "platform", "network": "TU", "operator": "TU" }, "geometry": { "type": "Point", "coordinates": [ 100.6048027, 14.069062 ] } }
]
}
